College Name,City,State,ZipCode,Selectivity,file_name
Alabama A&M University,Normal,AL,35762,COMPETITIVE,searchpage-profile.cfm_001.html
Alabama State University,Montgomery,AL,36101,NONCOMPETITIVE,searchpage-profile.cfm_002.html
Auburn University,Auburn,AL,36849,VERY COMPETITIVE+,searchpage-profile.cfm_003.html
Auburn University at Montgomery,Montgomery,AL,36124,COMPETITIVE,searchpage-profile.cfm_004.html
Huntingdon College,Montgomery,AL,36106,COMPETITIVE,searchpage-profile.cfm_005.html
Jacksonville State University,Jacksonville,AL,36265,LESS COMPETITIVE,searchpage-profile.cfm_006.html
Birmingham-Southern College,Birmingham,AL,35254,VERY COMPETITIVE,searchpage-profile.cfm_007.html
Faulkner University,Montgomery,AL,36109,COMPETITIVE,searchpage-profile.cfm_008.html
Oakwood University,Huntsville,AL,35896,COMPETITIVE,searchpage-profile.cfm_009.html
Miles College,Birmingham,AL,35064,NONCOMPETITIVE,searchpage-profile.cfm_010.html
Judson College,Marion,AL,36756,COMPETITIVE,searchpage-profile.cfm_011.html
Samford University,Birmingham,AL,35229,VERY COMPETITIVE,searchpage-profile.cfm_012.html
Spring Hill College,Mobile,AL,36608,COMPETITIVE,searchpage-profile.cfm_013.html
Stillman College,Tuscaloosa,AL,35403,COMPETITIVE,searchpage-profile.cfm_014.html
Talladega College,Talladega,AL,35160,COMPETITIVE,searchpage-profile.cfm_015.html
Troy University,Troy,AL,36082,COMPETITIVE,searchpage-profile.cfm_016.html
Tuskegee University,Tuskegee,AL,36088,COMPETITIVE,searchpage-profile.cfm_017.html
University of Alabama in Huntsville,Huntsville,AL,35899,VERY COMPETITIVE,searchpage-profile.cfm_020.html
University of Alabama at Birmingham,Birmingham,AL,35294,COMPETITIVE,searchpage-profile.cfm_021.html
University of Alabama,Tuscaloosa,AL,35487,COMPETITIVE+,searchpage-profile.cfm_023.html
University of Mobile,Mobile,AL,36613,COMPETITIVE,searchpage-profile.cfm_024.html
University of Montevallo,Montevallo,AL,35115,COMPETITIVE,searchpage-profile.cfm_026.html
University of North Alabama,Florence,AL,35632,COMPETITIVE,searchpage-profile.cfm_027.html
University of South Alabama,Mobile,AL,36688,COMPETITIVE,searchpage-profile.cfm_028.html
University of West Alabama,Livingston,AL,35470,NONCOMPETITIVE,searchpage-profile.cfm_029.html
Alaska Pacific University,Anchorage,AK,99508,VERY COMPETITIVE,searchpage-profile.cfm_032.html
University of Alaska Anchorage,Anchorage,AK,99508,NONCOMPETITIVE,searchpage-profile.cfm_033.html
University of Alaska Southeast,Juneau,AK,99801,COMPETITIVE,searchpage-profile.cfm_034.html
University of Alaska Fairbanks,Fairbanks,AK,99775,COMPETITIVE,searchpage-profile.cfm_035.html
SAGU American Indian College,Phoenix,AZ,85021,COMPETITIVE,searchpage-profile.cfm_038.html
Arizona State University at the Tempe Campus,Tempe,AZ,85287,VERY COMPETITIVE,searchpage-profile.cfm_039.html
Embry-Riddle Aeronautical University - Prescott Campus,Prescott,AZ,86301,VERY  COMPETITIVE,searchpage-profile.cfm_040.html
Northern Arizona University,Flagstaff,AZ,86011,VERY COMPETITIVE,searchpage-profile.cfm_041.html
Grand Canyon University,Phoenix,AZ,85017,VERY COMPETITIVE,searchpage-profile.cfm_042.html
University of Arizona,Tucson,AZ,85721,COMPETITIVE,searchpage-profile.cfm_043.html
Prescott College,Prescott,AZ,86301,COMPETITIVE,searchpage-profile.cfm_044.html
Arkansas Baptist College,Little Rock,AR,72202,NONCOMPETITIVE,searchpage-profile.cfm_047.html
Arkansas Tech University,Russellville,AR,72801,COMPETITIVE,searchpage-profile.cfm_048.html
Harding University,Searcy,AR,72149,COMPETITIVE,searchpage-profile.cfm_049.html
Arkansas State University,State University,AR,72467,COMPETITIVE,searchpage-profile.cfm_050.html
Henderson State University,Arkadelphia,AR,71999,LESS COMPETITIVE,searchpage-profile.cfm_051.html
John Brown University,Siloam Springs,AR,72761,VERY COMPETITIVE,searchpage-profile.cfm_052.html
Hendrix College,Conway,AR,72032,VERY COMPETITIVE+,searchpage-profile.cfm_053.html
Ouachita Baptist University,Arkadelphia,AR,71998,COMPETITIVE,searchpage-profile.cfm_054.html
Lyon College,Batesville,AR,72501,COMPETITIVE+,searchpage-profile.cfm_055.html
Southern Arkansas University,Magnolia,AR,71754,COMPETITIVE,searchpage-profile.cfm_056.html
Philander Smith College,Little Rock,AR,72202,LESS COMPETITIVE,searchpage-profile.cfm_057.html
University of Arkansas at Fayetteville,Fayetteville,AR,72701,COMPETITIVE+,searchpage-profile.cfm_059.html
University of Arkansas at Little Rock,Little Rock,AR,72204,COMPETITIVE,searchpage-profile.cfm_060.html
University of Arkansas at Monticello,Monticello,AR,71656,NONCOMPETITIVE,searchpage-profile.cfm_061.html
University of Arkansas at Pine Bluff,Pine Bluff,AR,71601,COMPETITIVE,searchpage-profile.cfm_062.html
University of Central Arkansas,Conway,AR,72035,VERY COMPETITIVE,searchpage-profile.cfm_063.html
University of the Ozarks,Clarksville,AR,72830,COMPETITIVE,searchpage-profile.cfm_064.html
Williams Baptist College,Walnut Ridge,AR,72476,COMPETITIVE,searchpage-profile.cfm_065.html
Laguna College of Art and Design,Laguna Beach,CA,92651,LESS COMPETITIVE,searchpage-profile.cfm_066.html
ArtCenter College of Design,Pasadena,CA,91103,SPECIAL,searchpage-profile.cfm_067.html
Azusa Pacific University,Azusa,CA,91702,COMPETITIVE,searchpage-profile.cfm_068.html
Biola University,La Mirada,CA,90639,COMPETITIVE+,searchpage-profile.cfm_069.html
California Baptist University,Riverside,CA,92504,COMPETITIVE,searchpage-profile.cfm_070.html
California College of the Arts,San Francisco,CA,94107,SPECIAL,searchpage-profile.cfm_071.html
California Institute of Technology,Pasadena,CA,91125,MOST COMPETITIVE,searchpage-profile.cfm_072.html
California Institute of the Arts,Valencia,CA,91355,SPECIAL,searchpage-profile.cfm_073.html
California Lutheran University,Thousand Oaks,CA,91360,COMPETITIVE,searchpage-profile.cfm_074.html
"California State University,  Maritime Academy",Vallejo,CA,94590,LESS COMPETITIVE,searchpage-profile.cfm_075.html
California Polytechnic State University,San Luis Obispo,CA,93407,HIGHLY COMPETITIVE+,searchpage-profile.cfm_076.html
"California State University, Bakersfield",Bakersfield,CA,93311,LESS COMPETITIVE,searchpage-profile.cfm_078.html
"California State University, Chico",Chico,CA,95929,COMPETITIVE,searchpage-profile.cfm_079.html
"California State University, Dominguez Hills",Carson,CA,90747,LESS COMPETITIVE,searchpage-profile.cfm_080.html
"California State University, Fresno",Fresno,CA,93740,LESS COMPETITIVE,searchpage-profile.cfm_081.html
"California State University, Fullerton",Fullerton,CA,92834,COMPETITIVE,searchpage-profile.cfm_082.html
"California State University, East Bay",Hayward,CA,94542,COMPETITIVE,searchpage-profile.cfm_083.html
"California State University, Long Beach",Long Beach,CA,90840,COMPETITIVE,searchpage-profile.cfm_084.html
"California State University, Los Angeles",Los Angeles,CA,90032,LESS COMPETITIVE,searchpage-profile.cfm_085.html
"California State Polytechnic University, Pomona",Pomona,CA,91768,COMPETITIVE,searchpage-profile.cfm_086.html
"California State University, Sacramento",Sacramento,CA,95819,COMPETITIVE,searchpage-profile.cfm_087.html
"California State University, Monterey Bay",Seaside,CA,93955,LESS COMPETITIVE,searchpage-profile.cfm_088.html
"California State University, Northridge",Northridge,CA,91330,LESS COMPETITIVE,searchpage-profile.cfm_089.html
"California State University, San Bernardino",San Bernardino,CA,92407,COMPETITIVE,searchpage-profile.cfm_090.html
"California State University, Stanislaus",Turlock,CA,95382,COMPETITIVE,searchpage-profile.cfm_091.html
"California State University, San Marcos",San Marcos,CA,92096,LESS COMPETITIVE,searchpage-profile.cfm_092.html
Chapman University,Orange,CA,92866,VERY COMPETITIVE+,searchpage-profile.cfm_093.html
San Diego Christian College,Santee,CA,92071,COMPETITIVE,searchpage-profile.cfm_094.html
Claremont McKenna College,Claremont,CA,91711,MOST COMPETITIVE,searchpage-profile.cfm_095.html
Notre Dame de Namur University,Belmont,CA,94002,LESS COMPETITIVE,searchpage-profile.cfm_097.html
Cogswell Polytechnical College,San Jose,CA,95134,COMPETITIVE,searchpage-profile.cfm_098.html
State University of New York/SUNY Cortland,Cortland,NY,13045,VERY COMPETITIVE,searchpage-profile.cfm_1000.html
State University of New York/SUNY Fredonia,Fredonia,NY,14063,COMPETITIVE,searchpage-profile.cfm_1001.html
State University of New York at Geneseo,Geneseo,NY,14454,VERY COMPETITIVE+,searchpage-profile.cfm_1002.html
State University of New York at New Paltz,New Paltz,NY,12561,COMPETITIVE,searchpage-profile.cfm_1003.html
State University of New York/College at Old Westbury,Old Westbury,NY,11568,COMPETITIVE,searchpage-profile.cfm_1004.html
State University of New York/SUNY Oneonta,Oneonta,NY,13820,COMPETITIVE+,searchpage-profile.cfm_1005.html
State University of New York at Oswego,Oswego,NY,13126,COMPETITIVE,searchpage-profile.cfm_1006.html
State University of New York/SUNY Plattsburgh,Plattsburgh,NY,12901,COMPETITIVE,searchpage-profile.cfm_1007.html
State University of New York/SUNY Potsdam,Potsdam,NY,13676,COMPETITIVE+,searchpage-profile.cfm_1008.html
State University of New York at Purchase,Purchase,NY,10577,COMPETITIVE,searchpage-profile.cfm_1009.html
State University of New York/The College of Environmental Science and Forestry,Syracuse,NY,13210,VERY COMPETITIVE,searchpage-profile.cfm_1010.html
Alfred State College,Alfred,NY,14802,COMPETITIVE,searchpage-profile.cfm_1011.html
Farmingdale State College,Farmingdale,NY,11735,COMPETITIVE,searchpage-profile.cfm_1012.html
State University of New York/Empire State College,Saratoga Springs,NY,12866,SPECIAL,searchpage-profile.cfm_1013.html
State University of New York/Maritime College,Throgs Neck,NY,10465,COMPETITIVE,searchpage-profile.cfm_1014.html
Syracuse University,Syracuse,NY,13244,VERY COMPETITIVE,searchpage-profile.cfm_1015.html
Touro College,New York,NY,10018,VERY COMPETITIVE,searchpage-profile.cfm_1016.html
Union College,Schenectady,NY,12308,MOST COMPETITIVE,searchpage-profile.cfm_1017.html
United States Merchant Marine Academy,Kings Point,NY,11024,HIGHLY COMPETITIVE,searchpage-profile.cfm_1018.html
United States Military Academy at West Point,West Point,NY,10996,HIGHLY COMPETITIVE+,searchpage-profile.cfm_1019.html
Concordia University Irvine,Irvine,CA,92612,VERY COMPETITIVE,searchpage-profile.cfm_102.html
University of Rochester,Rochester,NY,14627,MOST COMPETITIVE,searchpage-profile.cfm_1020.html
Utica College,Utica,NY,13502,COMPETITIVE,searchpage-profile.cfm_1021.html
Vassar College,Poughkeepsie,NY,12604,MOST COMPETITIVE,searchpage-profile.cfm_1022.html
Wagner College,Staten Island,NY,10301,COMPETITIVE+,searchpage-profile.cfm_1023.html
Webb Institute,Glen Cove,NY,11542,MOST COMPETITIVE,searchpage-profile.cfm_1024.html
Wells College,Aurora,NY,13026,COMPETITIVE,searchpage-profile.cfm_1025.html
Yeshiva University,New York,NY,10033,VERY COMPETITIVE+,searchpage-profile.cfm_1026.html
Appalachian State University,Boone,NC,28608,VERY COMPETITIVE,searchpage-profile.cfm_1027.html
Barton College,Wilson,NC,27893,LESS COMPETITIVE,searchpage-profile.cfm_1029.html
Belmont Abbey College,Belmont,NC,28012,COMPETITIVE,searchpage-profile.cfm_1030.html
Bennett College,Greensboro,NC,27401,NON COMPETITIVE,searchpage-profile.cfm_1031.html
Cabarrus College of Health Sciences,Concord,NC,28025,SPECIAL,searchpage-profile.cfm_1032.html
Campbell University,Buies Creek,NC,27506,VERY COMPETITIVE,searchpage-profile.cfm_1033.html
Catawba College,Salisbury,NC,28144,COMPETITIVE,searchpage-profile.cfm_1034.html
Davidson College,Davidson,NC,28035,MOST COMPETITIVE,searchpage-profile.cfm_1035.html
Duke University,Durham,NC,27706,MOST COMPETITIVE,searchpage-profile.cfm_1036.html
East Carolina University,Greenville,NC,27858,COMPETITIVE,searchpage-profile.cfm_1037.html
Elizabeth City State University,Elizabeth City,NC,27909,COMPETITIVE,searchpage-profile.cfm_1038.html
Elon University,Elon,NC,27244,VERY COMPETITIVE+,searchpage-profile.cfm_1039.html
Fresno Pacific University,Fresno,CA,93702,COMPETITIVE,searchpage-profile.cfm_104.html
Fayetteville State University,Fayetteville,NC,28301,COMPETITIVE,searchpage-profile.cfm_1040.html
Gardner-Webb University,Boiling Springs,NC,28017,COMPETITIVE+,searchpage-profile.cfm_1041.html
Greensboro College,Greensboro,NC,27401,LESS COMPETITIVE,searchpage-profile.cfm_1042.html
Guilford College,Greensboro,NC,27410,COMPETITIVE,searchpage-profile.cfm_1043.html
High Point University,High Point,NC,27268,COMPETITIVE,searchpage-profile.cfm_1044.html
Johnson C. Smith University,Charlotte,NC,28216,LESS COMPETITIVE,searchpage-profile.cfm_1045.html
Lees-McRae College,Banner Elk,NC,28604,COMPETITIVE,searchpage-profile.cfm_1046.html
Lenoir-Rhyne University,Hickory,NC,28603,COMPETITIVE,searchpage-profile.cfm_1047.html
Mars Hill University,Mars Hill,NC,28754,COMPETITIVE,searchpage-profile.cfm_1048.html
Meredith College,Raleigh,NC,27607,COMPETITIVE,searchpage-profile.cfm_1049.html
Dominican University of California,San Rafael,CA,94901,COMPETITIVE,searchpage-profile.cfm_105.html
Methodist University,Fayetteville,NC,28311,COMPETITIVE,searchpage-profile.cfm_1050.html
Montreat College,Montreat,NC,28757,LESS COMPETITIVE,searchpage-profile.cfm_1051.html
University of Mount Olive,Mount Olive,NC,28365,COMPETITIVE,searchpage-profile.cfm_1052.html
North Carolina A&T State University,Greensboro,NC,27411,LESS COMPETITIVE,searchpage-profile.cfm_1053.html
North Carolina Central University,Durham,NC,27707,COMPETITIVE,searchpage-profile.cfm_1054.html
University of North Carolina School of the Arts,Winston-Salem,NC,27127,SPECIAL,searchpage-profile.cfm_1055.html
North Carolina State University,Raleigh,NC,27695,HIGHLY COMPETITIVE+,searchpage-profile.cfm_1056.html
North Carolina Wesleyan College,Rocky Mount,NC,27804,COMPETITIVE,searchpage-profile.cfm_1057.html
Pfeiffer University,Misenheimer,NC,28109,LESS COMPETITIVE,searchpage-profile.cfm_1058.html
Queens University of Charlotte,Charlotte,NC,28274,COMPETITIVE,searchpage-profile.cfm_1059.html
Harvey Mudd College,Claremont,CA,91711,MOST COMPETITIVE,searchpage-profile.cfm_106.html
St. Andrews University,Laurinburg,NC,28352,LESS COMPETITIVE,searchpage-profile.cfm_1060.html
Saint Augustine's University,Raleigh,NC,27610,COMPETITIVE,searchpage-profile.cfm_1061.html
Salem College,Winston-Salem,NC,27101,HIGHLY COMPETITIVE,searchpage-profile.cfm_1062.html
Shaw University,Raleigh,NC,27601,COMPETITIVE,searchpage-profile.cfm_1063.html
University of North Carolina at Asheville,Asheville,NC,28804,VERY COMPETITIVE+,searchpage-profile.cfm_1065.html
University of North Carolina at Chapel Hill,Chapel Hill,NC,27599,HIGHLY COMPETITIVE+,searchpage-profile.cfm_1066.html
University of North Carolina at Charlotte,Charlotte,NC,28223,COMPETITIVE,searchpage-profile.cfm_1067.html
University of North Carolina at Greensboro,Greensboro,NC,27412,COMPETITIVE,searchpage-profile.cfm_1068.html
University of North Carolina at Pembroke,Pembroke,NC,28372,LESS COMPETITIVE,searchpage-profile.cfm_1069.html
Hope International University,Fullerton,CA,92831,COMPETITIVE,searchpage-profile.cfm_107.html
University of North Carolina at Wilmington,Wilmington,NC,28403,VERY COMPETITIVE,searchpage-profile.cfm_1070.html
Wake Forest University,Winston-Salem,NC,27109,MOST COMPETITIVE,searchpage-profile.cfm_1071.html
Warren Wilson College,Asheville,NC,28815,VERY COMPETITIVE,searchpage-profile.cfm_1072.html
Western Carolina University,Cullowhee,NC,28723,COMPETITIVE,searchpage-profile.cfm_1073.html
Wingate University,Wingate,NC,28174,COMPETITIVE,searchpage-profile.cfm_1074.html
Winston-Salem State University,Winston-Salem,NC,27110,LESS COMPETITIVE,searchpage-profile.cfm_1075.html
Dickinson State University,Dickinson,ND,58601,LESS COMPETITIVE,searchpage-profile.cfm_1076.html
University of Jamestown,Jamestown,ND,58405,COMPETITIVE,searchpage-profile.cfm_1077.html
Mayville State University,Mayville,ND,58257,NONCOMPETITIVE,searchpage-profile.cfm_1078.html
Minot State University,Minot,ND,58707,COMPETITIVE,searchpage-profile.cfm_1079.html
Humboldt State University,Arcata,CA,95521,COMPETITIVE,searchpage-profile.cfm_108.html
North Dakota State University,Fargo,ND,58108,COMPETITIVE,searchpage-profile.cfm_1080.html
The University of Mary,Bismarck,ND,58504,COMPETITIVE,searchpage-profile.cfm_1081.html
University of North Dakota,Grand Forks,ND,58202,COMPETITIVE,searchpage-profile.cfm_1082.html
Valley City State University,Valley City,ND,58072,COMPETITIVE,searchpage-profile.cfm_1083.html
Art Academy of Cincinnati,Cincinnati,OH,45202,SPECIAL,searchpage-profile.cfm_1085.html
Ashland University,Ashland,OH,44805,COMPETITIVE,searchpage-profile.cfm_1086.html
Baldwin Wallace University,Berea,OH,44017,COMPETITIVE,searchpage-profile.cfm_1087.html
Bluffton University,Bluffton,OH,45817,COMPETITIVE,searchpage-profile.cfm_1088.html
Bowling Green State University,Bowling Green,OH,43403,COMPETITIVE,searchpage-profile.cfm_1089.html
Holy Names University,Oakland,CA,94619,LESS COMPETITIVE,searchpage-profile.cfm_109.html
Capital University,Columbus,OH,43209,COMPETITIVE,searchpage-profile.cfm_1090.html
Case Western Reserve University,Cleveland,OH,44106,MOST COMPETITIVE,searchpage-profile.cfm_1091.html
Cedarville University,Cedarville,OH,45314,VERY COMPETITIVE,searchpage-profile.cfm_1092.html
Central State University,Wilberforce,OH,45384,COMPETITIVE,searchpage-profile.cfm_1093.html
Cleveland Institute of Art,Cleveland,OH,44106,COMPETITIVE+,searchpage-profile.cfm_1095.html
Cleveland Institute of Music,Cleveland,OH,44106,SPECIAL,searchpage-profile.cfm_1096.html
Cleveland State University,Cleveland,OH,44115,COMPETITIVE,searchpage-profile.cfm_1097.html
Mount St. Joseph University,Cincinnati,OH,45233,COMPETITIVE,searchpage-profile.cfm_1098.html
The College of Wooster,Wooster,OH,44691,VERY COMPETITIVE+,searchpage-profile.cfm_1099.html
Humphreys College,Stockton,CA,95207,COMPETITIVE,searchpage-profile.cfm_110.html
Columbus College of Art and Design,Columbus,OH,43215,COMPETITIVE,searchpage-profile.cfm_1100.html
Defiance College,Defiance,OH,43512,COMPETITIVE,searchpage-profile.cfm_1102.html
Denison University,Granville,OH,43023,MOST COMPETITIVE,searchpage-profile.cfm_1103.html
Franciscan University of Steubenville,Steubenville,OH,43952,VERY COMPETITIVE,searchpage-profile.cfm_1105.html
Franklin University,Columbus,OH,43215,SPECIAL,searchpage-profile.cfm_1106.html
Heidelberg University,Tiffin,OH,44883,COMPETITIVE,searchpage-profile.cfm_1107.html
Hiram College,Hiram,OH,44234,COMPETITIVE,searchpage-profile.cfm_1108.html
John Carroll University,University Heights,OH,44118,COMPETITIVE+,searchpage-profile.cfm_1109.html
Golden Gate University,San Francisco,CA,94105,COMPETITIVE,searchpage-profile.cfm_111.html
Kent State University,Kent,OH,44242,COMPETITIVE,searchpage-profile.cfm_1110.html
Kenyon College,Gambier,OH,43022,MOST COMPETITIVE,searchpage-profile.cfm_1111.html
Lake Erie College,Painesville,OH,44077,LESS COMPETITIVE,searchpage-profile.cfm_1112.html
Lourdes University,Sylvania,OH,43560,NONCOMPETITIVE,searchpage-profile.cfm_1113.html
Malone University,Canton,OH,44709,COMPETITIVE,searchpage-profile.cfm_1114.html
Marietta College,Marietta,OH,45750,COMPETITIVE,searchpage-profile.cfm_1115.html
Miami University,Oxford,OH,45056,HIGHLY COMPETITIVE+,searchpage-profile.cfm_1116.html
University of Mount Union,Alliance,OH,44601,COMPETITIVE,searchpage-profile.cfm_1117.html
Mount Vernon Nazarene University,Mount Vernon,OH,43050,COMPETITIVE,searchpage-profile.cfm_1118.html
Muskingum University,New Concord,OH,43762,COMPETITIVE,searchpage-profile.cfm_1119.html
The Master's  University,Santa Clarita,CA,91321,COMPETITIVE+,searchpage-profile.cfm_112.html
Oberlin College,Oberlin,OH,44074,MOST COMPETITIVE,searchpage-profile.cfm_1120.html
Ohio Dominican University,Columbus,OH,43219,COMPETITIVE+,searchpage-profile.cfm_1121.html
Ohio Northern University,Ada,OH,45810,VERY COMPETITIVE,searchpage-profile.cfm_1122.html
Ohio State University at Columbus,Columbus,OH,43210,HIGHLY COMPETITIVE+,searchpage-profile.cfm_1124.html
Ohio State University at Lima,Lima,OH,45804,COMPETITIVE,searchpage-profile.cfm_1125.html
Ohio State University at Mansfield,Mansfield,OH,44906,COMPETITIVE,searchpage-profile.cfm_1126.html
Ohio State University at Marion,Marion,OH,43302,COMPETITIVE,searchpage-profile.cfm_1127.html
Ohio State University at Newark,Newark,OH,43055,COMPETITIVE,searchpage-profile.cfm_1128.html
Ohio University,Athens,OH,45701,COMPETITIVE,searchpage-profile.cfm_1129.html
La Sierra University,Riverside,CA,92515,VERY COMPETITIVE,searchpage-profile.cfm_113.html
Ohio Wesleyan University,Delaware,OH,43015,VERY COMPETITIVE,searchpage-profile.cfm_1130.html
Otterbein University,Westerville,OH,43081,COMPETITIVE,searchpage-profile.cfm_1131.html
Shawnee State University,Portsmouth,OH,45662,COMPETITIVE,searchpage-profile.cfm_1132.html
Tiffin University,Tiffin,OH,44883,COMPETITIVE,searchpage-profile.cfm_1133.html
Union Institute & University,Cincinnati,OH,45206,SPECIAL,searchpage-profile.cfm_1134.html
The University of Akron,Akron,OH,44325,COMPETITIVE,searchpage-profile.cfm_1135.html
University of Cincinnati,Cincinnati,OH,45221,VERY COMPETITIVE,searchpage-profile.cfm_1136.html
University of Dayton,Dayton,OH,45469,COMPETITIVE,searchpage-profile.cfm_1137.html
University of Findlay,Findlay,OH,45840,COMPETITIVE,searchpage-profile.cfm_1138.html
University of Rio Grande & Rio Grande Community College,Rio Grande,OH,45674,NONCOMPETITIVE,searchpage-profile.cfm_1139.html
Loyola Marymount University,Los Angeles,CA,90045,HIGHLY COMPETITIVE,searchpage-profile.cfm_114.html
University of Toledo,Toledo,OH,43606,NONCOMPETITIVE,searchpage-profile.cfm_1140.html
Urbana University,Urbana,OH,43078,COMPETITIVE,searchpage-profile.cfm_1141.html
Ursuline College,Pepper Pike,OH,44124,LESS COMPETITIVE,searchpage-profile.cfm_1142.html
Walsh University,North Canton,OH,44720,COMPETITIVE,searchpage-profile.cfm_1143.html
Wilberforce University,Wilberforce,OH,45384,COMPETITIVE,searchpage-profile.cfm_1144.html
Wilmington College,Wilmington,OH,45177,COMPETITIVE,searchpage-profile.cfm_1145.html
Wittenberg University,Springfield,OH,45501,COMPETITIVE+,searchpage-profile.cfm_1146.html
Wright State University,Dayton,OH,45435,COMPETITIVE,searchpage-profile.cfm_1147.html
Xavier University,Cincinnati,OH,45207,COMPETITIVE+,searchpage-profile.cfm_1148.html
Youngstown State University,Youngstown,OH,44555,COMPETITIVE,searchpage-profile.cfm_1149.html
Oklahoma Wesleyan University,Bartlesville,OK,74006,COMPETITIVE,searchpage-profile.cfm_1150.html
Cameron University,Lawton,OK,73505,NONCOMPETITIVE,searchpage-profile.cfm_1151.html
East Central University,Ada,OK,74820,COMPETITIVE,searchpage-profile.cfm_1152.html
Langston University,Langston,OK,73050,COMPETITIVE,searchpage-profile.cfm_1153.html
Northeastern State University,Tahlequah,OK,74464,VERY COMPETITIVE,searchpage-profile.cfm_1154.html
Northwestern Oklahoma State University,Alva,OK,73717,NONCOMPETITIVE,searchpage-profile.cfm_1155.html
Oklahoma Baptist University,Shawnee,OK,74804,COMPETITIVE,searchpage-profile.cfm_1156.html
Oklahoma Christian University,Oklahoma City,OK,73136,VERY COMPETITIVE,searchpage-profile.cfm_1157.html
Oklahoma City University,Oklahoma City,OK,73106,VERY COMPETITIVE,searchpage-profile.cfm_1158.html
Oklahoma Panhandle State University,Goodwell,OK,73939,NONCOMPETITIVE,searchpage-profile.cfm_1159.html
Mills College,Oakland,CA,94613,VERY COMPETITIVE,searchpage-profile.cfm_116.html
Oklahoma State University,Stillwater,OK,74078,VERY  COMPETITIVE,searchpage-profile.cfm_1161.html
Oral Roberts University,Tulsa,OK,74171,COMPETITIVE,searchpage-profile.cfm_1162.html
St. Gregory's University,Shawnee,OK,74804,NONCOMPETITIVE,searchpage-profile.cfm_1163.html
Southeastern Oklahoma State University,Durant,OK,74701,COMPETITIVE,searchpage-profile.cfm_1164.html
Southern Nazarene University,Bethany,OK,73008,NONCOMPETITIVE,searchpage-profile.cfm_1165.html
Southwestern Oklahoma State University,Weatherford,OK,73096,COMPETITIVE,searchpage-profile.cfm_1166.html
University of Central Oklahoma,Edmond,OK,73034,COMPETITIVE,searchpage-profile.cfm_1167.html
University of Oklahoma,Norman,OK,73019,VERY COMPETITIVE,searchpage-profile.cfm_1168.html
University of Science and Arts of Oklahoma,Chickasha,OK,73018,VERY COMPETITIVE,searchpage-profile.cfm_1169.html
Mount St. Mary's University - Chalon Campus,Los Angeles,CA,90049,VERY COMPETITIVE+,searchpage-profile.cfm_117.html
University of Tulsa,Tulsa,OK,74104,HIGHLY COMPETITIVE+,searchpage-profile.cfm_1170.html
Art Institute of Portland,Portland,OR,97209,SPECIAL,searchpage-profile.cfm_1171.html
Concordia University,Portland,OR,97211,COMPETITIVE,searchpage-profile.cfm_1173.html
Eastern Oregon University,La Grande,OR,97850,COMPETITIVE,searchpage-profile.cfm_1174.html
George Fox University,Newberg,OR,97132,COMPETITIVE,searchpage-profile.cfm_1175.html
Lewis & Clark College,Portland,OR,97219,HIGHLY COMPETITIVE+,searchpage-profile.cfm_1176.html
Linfield College,McMinnville,OR,97128,COMPETITIVE,searchpage-profile.cfm_1177.html
Marylhurst University,Marylhurst,OR,97036,NONCOMPETITIVE,searchpage-profile.cfm_1178.html
Northwest Christian University,Eugene,OR,97401,COMPETITIVE,searchpage-profile.cfm_1179.html
National University,La Jolla,CA,92037,LESS COMPETITIVE,searchpage-profile.cfm_118.html
Oregon Institute of Technology,Klamath Falls,OR,97601,COMPETITIVE,searchpage-profile.cfm_1181.html
Oregon State University,Corvallis,OR,97331,VERY COMPETITIVE,searchpage-profile.cfm_1183.html
Pacific Northwest College of Art,Portland,OR,97209,SPECIAL,searchpage-profile.cfm_1184.html
Pacific University,Forest Grove,OR,97116,COMPETITIVE,searchpage-profile.cfm_1185.html
Portland State University,Portland,OR,97207,COMPETITIVE,searchpage-profile.cfm_1186.html
Reed College,Portland,OR,97202,MOST COMPETITIVE,searchpage-profile.cfm_1187.html
Southern Oregon University,Ashland,OR,97520,COMPETITIVE,searchpage-profile.cfm_1188.html
University of Oregon,Eugene,OR,97403,COMPETITIVE,searchpage-profile.cfm_1189.html
University of Portland,Portland,OR,97203,VERY COMPETITIVE,searchpage-profile.cfm_1190.html
Warner Pacific College,Portland,OR,97215,COMPETITIVE,searchpage-profile.cfm_1191.html
Corban University,Salem,OR,97317,COMPETITIVE,searchpage-profile.cfm_1192.html
Western Oregon University,Monmouth,OR,97361,LESS COMPETITIVE,searchpage-profile.cfm_1193.html
Willamette University,Salem,OR,97301,VERY COMPETITIVE+,searchpage-profile.cfm_1194.html
Albright College,Reading,PA,19612,COMPETITIVE,searchpage-profile.cfm_1195.html
Allegheny College,Meadville,PA,16335,VERY COMPETITIVE,searchpage-profile.cfm_1196.html
DeSales University,Center Valley,PA,18034,COMPETITIVE,searchpage-profile.cfm_1197.html
Alvernia University,Reading,PA,19607,COMPETITIVE,searchpage-profile.cfm_1198.html
Arcadia University,Glenside,PA,19038,COMPETITIVE+,searchpage-profile.cfm_1199.html
Otis College of Art and Design,Los Angeles,CA,90045,SPECIAL,searchpage-profile.cfm_120.html
Bloomsburg University of Pennsylvania,Bloomsburg,PA,17815,LESS COMPETITIVE,searchpage-profile.cfm_1200.html
Bryn Athyn College,Bryn Athyn,PA,19009,COMPETITIVE,searchpage-profile.cfm_1201.html
Bryn Mawr College,Bryn Mawr,PA,19010,MOST COMPETITIVE,searchpage-profile.cfm_1202.html
Bucknell University,Lewisburg,PA,17837,MOST COMPETITIVE,searchpage-profile.cfm_1203.html
Cabrini University,Radnor,PA,19087,LESS COMPETITIVE,searchpage-profile.cfm_1204.html
California University of Pennsylvania,California,PA,15419,LESS COMPETITIVE,searchpage-profile.cfm_1205.html
Carlow University,Pittsburgh,PA,15213,LESS COMPETITIVE,searchpage-profile.cfm_1206.html
Carnegie Mellon University,Pittsburgh,PA,15213,MOST COMPETITIVE,searchpage-profile.cfm_1207.html
Cedar Crest College,Allentown,PA,18104,COMPETITIVE,searchpage-profile.cfm_1208.html
Chatham University,Pittsburgh,PA,15232,COMPETITIVE,searchpage-profile.cfm_1209.html
Pacific Union College,Angwin,CA,94508,VERY COMPETITIVE,searchpage-profile.cfm_121.html
Chestnut Hill College,Philadelphia,PA,19118,COMPETITIVE,searchpage-profile.cfm_1210.html
Cheyney University of Pennsylvania,Cheyney,PA,19319,LESS COMPETITIVE,searchpage-profile.cfm_1211.html
Clarion University of Pennsylvania,Clarion,PA,16214,LESS COMPETITIVE,searchpage-profile.cfm_1212.html
Misericordia University,Dallas,PA,18612,COMPETITIVE,searchpage-profile.cfm_1213.html
Curtis Institute of Music,Philadelphia,PA,19103,SPECIAL,searchpage-profile.cfm_1214.html
Delaware Valley University,Doylestown,PA,18901,COMPETITIVE,searchpage-profile.cfm_1215.html
Dickinson College,Carlisle,PA,17013,MOST COMPETITIVE,searchpage-profile.cfm_1216.html
Drexel University,Philadelphia,PA,19104,VERY COMPETITIVE+,searchpage-profile.cfm_1217.html
Duquesne University,Pittsburgh,PA,15282,VERY COMPETITIVE,searchpage-profile.cfm_1218.html
East Stroudsburg University,East Stroudsburg,PA,18301,COMPETITIVE,searchpage-profile.cfm_1219.html
Menlo College,Atherton,CA,94027,LESS COMPETITIVE,searchpage-profile.cfm_122.html
Eastern University,St. Davids,PA,19087,COMPETITIVE,searchpage-profile.cfm_1220.html
Edinboro University,Edinboro,PA,16444,LESS COMPETITIVE,searchpage-profile.cfm_1221.html
Elizabethtown College,Elizabethtown,PA,17022,COMPETITIVE,searchpage-profile.cfm_1222.html
Franklin and Marshall College,Lancaster,PA,17604,HIGHLY COMPETITIVE,searchpage-profile.cfm_1223.html
Gannon University,Erie,PA,16541,COMPETITIVE,searchpage-profile.cfm_1224.html
Geneva College,Beaver Falls,PA,15010,COMPETITIVE,searchpage-profile.cfm_1225.html
Gettysburg College,Gettysburg,PA,17325,HIGHLY COMPETITIVE,searchpage-profile.cfm_1226.html
Grove City College,Grove City,PA,16127,VERY COMPETITIVE,searchpage-profile.cfm_1228.html
Gwynedd Mercy University,Gwynedd Valley,PA,19437,LESS COMPETITIVE,searchpage-profile.cfm_1229.html
Occidental College,Los Angeles,CA,90041,MOST COMPETITIVE,searchpage-profile.cfm_123.html
Haverford College,Haverford,PA,19041,MOST COMPETITIVE,searchpage-profile.cfm_1230.html
Holy Family University,Philadelphia,PA,19114,LESS COMPETITIVE,searchpage-profile.cfm_1231.html
Immaculata University,Immaculata,PA,19345,COMPETITIVE,searchpage-profile.cfm_1232.html
Indiana University of Pennsylvania,Indiana,PA,15705,LESS COMPETITIVE,searchpage-profile.cfm_1233.html
Juniata College,Huntingdon,PA,16652,VERY COMPETITIVE,searchpage-profile.cfm_1234.html
Keystone College,La Plume,PA,18440,LESS COMPETITIVE,searchpage-profile.cfm_1235.html
King's College,Wilkes Barre,PA,18711,COMPETITIVE,searchpage-profile.cfm_1236.html
Kutztown University of Pennsylvania,Kutztown,PA,19530,LESS COMPETITIVE,searchpage-profile.cfm_1237.html
La Roche College,Pittsburgh,PA,15237,LESS COMPETITIVE,searchpage-profile.cfm_1238.html
La Salle University,Philadelphia,PA,19141,COMPETITIVE,searchpage-profile.cfm_1239.html
Pepperdine University,Malibu,CA,90263,HIGHLY COMPETITIVE+,searchpage-profile.cfm_124.html
Lafayette College,Easton,PA,18042,MOST COMPETITIVE,searchpage-profile.cfm_1240.html
Lebanon Valley College,Annville,PA,17003,COMPETITIVE,searchpage-profile.cfm_1241.html
Lehigh University,Bethlehem,PA,18015,MOST COMPETITIVE,searchpage-profile.cfm_1242.html
The Lincoln University,Lincoln University,PA,19352,NON COMPETITIVE,searchpage-profile.cfm_1243.html
Lock Haven University of Pennsylvania,Lock Haven,PA,17745,LESS COMPETITIVE,searchpage-profile.cfm_1244.html
Lycoming College,Williamsport,PA,17701,COMPETITIVE,searchpage-profile.cfm_1245.html
Mansfield University of  Pennsylvania,Mansfield,PA,16933,LESS COMPETITIVE,searchpage-profile.cfm_1246.html
Marywood University,Scranton,PA,18509,COMPETITIVE,searchpage-profile.cfm_1247.html
Mercyhurst University,Erie,PA,16546,COMPETITIVE,searchpage-profile.cfm_1249.html
Pitzer College,Claremont,CA,91711,MOST COMPETITIVE,searchpage-profile.cfm_125.html
Messiah College,Mechanicsburg,PA,17055,COMPETITIVE+,searchpage-profile.cfm_1250.html
Millersville University of Pennsylvania,Millersville,PA,17551,COMPETITIVE,searchpage-profile.cfm_1251.html
Moore College of Art and Design,Philadelphia,PA,19103,SPECIAL,searchpage-profile.cfm_1252.html
Moravian College,Bethlehem,PA,18018,Not Available,searchpage-profile.cfm_1253.html
Mount Aloysius College,Cresson,PA,16630,COMPETITIVE,searchpage-profile.cfm_1254.html
Muhlenberg College,Allentown,PA,18104,VERY COMPETITIVE+,searchpage-profile.cfm_1255.html
Neumann University,Aston,PA,19014,LESS COMPETITIVE,searchpage-profile.cfm_1256.html
Peirce College,Philadelphia,PA,19102,NONCOMPETITIVE,searchpage-profile.cfm_1257.html
"Penn State Erie,The Behrend College",Erie,PA,16563,COMPETITIVE,searchpage-profile.cfm_1258.html
Penn State Altoona,Altoona,PA,16601,COMPETITIVE,searchpage-profile.cfm_1259.html
Point Loma Nazarene University,San Diego,CA,92106,COMPETITIVE,searchpage-profile.cfm_126.html
Pennsylvania State University - University Park,University Park,PA,16802,HIGHLY COMPETITIVE,searchpage-profile.cfm_1260.html
Pennsylvania College of Technology,Williamsport,PA,17701,NONCOMPETITIVE,searchpage-profile.cfm_1261.html
Cairn University,Langhorne,PA,19047,COMPETITIVE,searchpage-profile.cfm_1263.html
Philadelphia University,Philadelphia,PA,19144,COMPETITIVE,searchpage-profile.cfm_1264.html
Point Park University,Pittsburgh,PA,15222,COMPETITIVE,searchpage-profile.cfm_1265.html
Robert Morris University,Moon Township,PA,15108,COMPETITIVE,searchpage-profile.cfm_1266.html
Rosemont College,Rosemont,PA,19010,COMPETITIVE,searchpage-profile.cfm_1267.html
Saint Francis University,Loretto,PA,15940,NONCOMPETITIVE,searchpage-profile.cfm_1268.html
Saint Joseph's University,Philadelphia,PA,19131,VERY COMPETITIVE+,searchpage-profile.cfm_1269.html
Pomona College,Claremont,CA,91711,MOST COMPETITIVE,searchpage-profile.cfm_127.html
Saint Vincent College,Latrobe,PA,15650,COMPETITIVE,searchpage-profile.cfm_1270.html
Seton Hill University,Greensburg,PA,15601,COMPETITIVE,searchpage-profile.cfm_1271.html
Shippensburg University of Pennsylvania,Shippensburg,PA,17257,COMPETITIVE,searchpage-profile.cfm_1272.html
Slippery Rock University of Pennsylvania,Slippery Rock,PA,16057,COMPETITIVE,searchpage-profile.cfm_1273.html
Susquehanna University,Selinsgrove,PA,17870,VERY COMPETITIVE,searchpage-profile.cfm_1274.html
Swarthmore College,Swarthmore,PA,19081,MOST COMPETITIVE,searchpage-profile.cfm_1275.html
Temple University,Philadelphia,PA,19122,VERY COMPETITIVE,searchpage-profile.cfm_1276.html
Thiel College,Greenville,PA,16125,COMPETITIVE,searchpage-profile.cfm_1277.html
University of Pennsylvania,Philadelphia,PA,19104,MOST COMPETITIVE,searchpage-profile.cfm_1278.html
University of Pittsburgh at Bradford,Bradford,PA,16701,COMPETITIVE,searchpage-profile.cfm_1280.html
University of Pittsburgh at Greensburg,Greensburg,PA,15601,COMPETITIVE,searchpage-profile.cfm_1281.html
University of Pittsburgh at Johnstown,Johnstown,PA,15904,COMPETITIVE,searchpage-profile.cfm_1282.html
University of Pittsburgh,Pittsburgh,PA,15260,HIGHLY COMPETITIVE+,searchpage-profile.cfm_1283.html
University of Scranton,Scranton,PA,18510,VERY COMPETITIVE,searchpage-profile.cfm_1284.html
University of the Arts,Philadelphia,PA,19102,SPECIAL,searchpage-profile.cfm_1285.html
University of the Sciences,Philadelphia,PA,19104,VERY COMPETITIVE,searchpage-profile.cfm_1286.html
Ursinus College,Collegeville,PA,19426,VERY COMPETITIVE,searchpage-profile.cfm_1287.html
Villanova University,Villanova,PA,19085,MOST COMPETITIVE,searchpage-profile.cfm_1288.html
Washington & Jefferson College,Washington,PA,15301,VERY COMPETITIVE,searchpage-profile.cfm_1289.html
San Diego State University,San Diego,CA,92182,COMPETITIVE+,searchpage-profile.cfm_129.html
Waynesburg University,Waynesburg,PA,15370,COMPETITIVE,searchpage-profile.cfm_1290.html
West Chester University of Pennsylvania,West Chester,PA,19383,COMPETITIVE,searchpage-profile.cfm_1291.html
Westminster College,New Wilmington,PA,16172,COMPETITIVE+,searchpage-profile.cfm_1292.html
Widener University,Chester,PA,19013,COMPETITIVE,searchpage-profile.cfm_1293.html
Wilkes University,Wilkes Barre,PA,18766,COMPETITIVE,searchpage-profile.cfm_1294.html
Wilson College,Chambersburg,PA,17201,COMPETITIVE,searchpage-profile.cfm_1295.html
York College of Pennsylvania,York,PA,17403,COMPETITIVE,searchpage-profile.cfm_1296.html
American University of Puerto Rico,Bayamon,PR,00960,Not Available,searchpage-profile.cfm_1297.html
Caribbean University,Bayamon,PR,00960,Not Available,searchpage-profile.cfm_1298.html
Bayamon Central University,Bayamon,PR,00960,Not Available,searchpage-profile.cfm_1299.html
Saint Mary's College of California,Moraga,CA,94575,COMPETITIVE,searchpage-profile.cfm_130.html
Conservatory of Music of Puerto Rico,San Juan,PR,00918,Not Available,searchpage-profile.cfm_1300.html
Escuela de Artes Plasticas de Puerto Rico,San Juan,PR,00902,Not Available,searchpage-profile.cfm_1301.html
Inter-American University of Puerto Rico-Aguadilla Campus,Aguadilla,PR,00605,Not Available,searchpage-profile.cfm_1303.html
Inter-American University of Puerto Rico-Arecibo Campus,Arecibo,PR,00614,Not Available,searchpage-profile.cfm_1304.html
Inter-American University of Puerto Rico-Barranquitas,Barranquitas,PR,00794,Not Available,searchpage-profile.cfm_1305.html
Inter-American University of Puerto Rico-Bayamon,Bayamon,PR,00957,Not Available,searchpage-profile.cfm_1306.html
Inter-American University of Puerto Rico-Fajardo Campus,Fajardo,PR,00738,Not Available,searchpage-profile.cfm_1307.html
Inter-American University of Puerto Rico-Metropolitan Campus,San Juan,PR,00919,Not Available,searchpage-profile.cfm_1308.html
Inter-American University of Puerto Rico Ponce,Ponce,PR,00715,Not Available,searchpage-profile.cfm_1309.html
San Francisco Art Institute,San Francisco,CA,94133,SPECIAL,searchpage-profile.cfm_131.html
Inter-American University of Puerto Rico-San Germán,San Germán,PR,00683,Not Available,searchpage-profile.cfm_1310.html
Pontifical Catholic University of Puerto Rico,Ponce,PR,00717,Not Available,searchpage-profile.cfm_1311.html
Universidad del Turabo,Gurabo,PR,00658,Not Available,searchpage-profile.cfm_1312.html
Universidad Adventista de las Antillas,Mayaguez,PR,00681,Not Available,searchpage-profile.cfm_1313.html
Universidad Metropolitana,Rio Piedras,PR,00928,Not Available,searchpage-profile.cfm_1314.html
"Universidad Politecnica de Puerto Rico, Hato Rey campus",Hato Rey,PR,00918,Not Available,searchpage-profile.cfm_1315.html
"University of  Puerto Rico, at Arecibo",Arecibo,PR,00613,Not Available,searchpage-profile.cfm_1317.html
"University of Puerto Rico, at Bayamon",Bayamon,PR,00959,Not Available,searchpage-profile.cfm_1318.html
"University of Puerto Rico, at Cayey",Cayey,PR,00736,Not Available,searchpage-profile.cfm_1319.html
San Francisco Conservatory of Music,San Francisco,CA,94102,SPECIAL,searchpage-profile.cfm_132.html
"University of Puerto Rico, at Humacao",Humacao,PR,00791,Not Available,searchpage-profile.cfm_1320.html
"University of Puerto Rico, at Mayaguez",Mayaguez,PR,00680,Not Available,searchpage-profile.cfm_1321.html
University of Puerto Rico-Rio Piedras campus,San Juan,PR,00931,Not Available,searchpage-profile.cfm_1322.html
University of the Sacred Heart,Santurce,PR,00914,Not Available,searchpage-profile.cfm_1323.html
Brown University,Providence,RI,02912,MOST COMPETITIVE,searchpage-profile.cfm_1324.html
Bryant University,Smithfield,RI,02917,VERY COMPETITIVE,searchpage-profile.cfm_1325.html
Providence College,Providence,RI,02918,VERY COMPETITIVE,searchpage-profile.cfm_1328.html
Rhode Island College,Providence,RI,02908,LESS COMPETITIVE,searchpage-profile.cfm_1329.html
San Francisco State University,San Francisco,CA,94132,LESS COMPETITIVE,searchpage-profile.cfm_133.html
Rhode Island School of Design,Providence,RI,02903,SPECIAL,searchpage-profile.cfm_1330.html
Roger Williams University,Bristol,RI,02809,COMPETITIVE+,searchpage-profile.cfm_1331.html
Salve Regina University,Newport,RI,02840,COMPETITIVE,searchpage-profile.cfm_1332.html
University of Rhode Island,Kingston,RI,02881,COMPETITIVE,searchpage-profile.cfm_1333.html
Allen University,Columbia,SC,29204,NON COMPETITIVE,searchpage-profile.cfm_1334.html
Benedict College,Columbia,SC,29204,NONCOMPETITIVE,searchpage-profile.cfm_1335.html
Charleston Southern University,Charleston,SC,29423,COMPETITIVE,searchpage-profile.cfm_1336.html
"The Citadel, The Military College of South Carolina",Charleston,SC,29409,COMPETITIVE,searchpage-profile.cfm_1337.html
Claflin University,Orangeburg,SC,29115,LESS COMPETITIVE,searchpage-profile.cfm_1338.html
Clemson University,Clemson,SC,29634,HIGHLY COMPETITIVE,searchpage-profile.cfm_1339.html
San Jose State University,San Jose,CA,95192,COMPETITIVE,searchpage-profile.cfm_134.html
Coastal Carolina University,Conway,SC,29528,COMPETITIVE,searchpage-profile.cfm_1340.html
Coker College,Hartsville,SC,29550,LESS COMPETITIVE,searchpage-profile.cfm_1341.html
College of Charleston,Charleston,SC,29424,COMPETITIVE,searchpage-profile.cfm_1342.html
Columbia College,Columbia,SC,29203,COMPETITIVE,searchpage-profile.cfm_1343.html
Converse College,Spartanburg,SC,29302,COMPETITIVE,searchpage-profile.cfm_1344.html
Erskine College,Due West,SC,29639,COMPETITIVE,searchpage-profile.cfm_1345.html
Francis Marion University,Florence,SC,29502,LESS COMPETITIVE,searchpage-profile.cfm_1346.html
Furman University,Greenville,SC,29613,VERY COMPETITIVE+,searchpage-profile.cfm_1347.html
Lander University,Greenwood,SC,29649,COMPETITIVE,searchpage-profile.cfm_1348.html
Limestone College,Gaffney,SC,29340,COMPETITIVE,searchpage-profile.cfm_1349.html
Morris College,Sumter,SC,29150,LESS COMPETITIVE,searchpage-profile.cfm_1350.html
Newberry College,Newberry,SC,29108,COMPETITIVE,searchpage-profile.cfm_1351.html
Presbyterian College,Clinton,SC,29325,VERY COMPETITIVE,searchpage-profile.cfm_1352.html
South Carolina State University,Orangeburg,SC,29117,LESS COMPETITIVE,searchpage-profile.cfm_1353.html
Southern Wesleyan University,Central,SC,29630,LESS COMPETITIVE,searchpage-profile.cfm_1354.html
University of South Carolina Aiken,Aiken,SC,29801,COMPETITIVE,searchpage-profile.cfm_1356.html
University of South Carolina at Columbia,Columbia,SC,29208,VERY COMPETITIVE+,searchpage-profile.cfm_1357.html
University of South Carolina Upstate,Spartanburg,SC,29303,LESS COMPETITIVE,searchpage-profile.cfm_1358.html
Voorhees College,Denmark,SC,29042,COMPETITIVE,searchpage-profile.cfm_1359.html
Winthrop University,Rock Hill,SC,29733,COMPETITIVE,searchpage-profile.cfm_1360.html
Wofford College,Spartanburg,SC,29303,VERY COMPETITIVE,searchpage-profile.cfm_1361.html
Augustana University,Sioux Falls,SD,57197,VERY COMPETITIVE,searchpage-profile.cfm_1362.html
Black Hills State University,Spearfish,SD,57799,COMPETITIVE,searchpage-profile.cfm_1363.html
Dakota State University,Madison,SD,57042,COMPETITIVE,searchpage-profile.cfm_1364.html
Dakota Wesleyan University,Mitchell,SD,57301,COMPETITIVE,searchpage-profile.cfm_1365.html
Mount Marty College,Yankton,SD,57078,COMPETITIVE,searchpage-profile.cfm_1367.html
Northern State University,Aberdeen,SD,57401,COMPETITIVE,searchpage-profile.cfm_1369.html
Oglala Lakota College,Kyle,SD,57752,NONCOMPETITIVE,searchpage-profile.cfm_1370.html
Presentation College,Aberdeen,SD,57401,NONCOMPETITIVE,searchpage-profile.cfm_1371.html
Sinte Gleska University,Rosebud,SD,57570,NONCOMPETITIVE,searchpage-profile.cfm_1372.html
South Dakota School of Mines and Technology,Rapid City,SD,57701,VERY COMPETITIVE,searchpage-profile.cfm_1374.html
South Dakota State University,Brookings,SD,57007,COMPETITIVE,searchpage-profile.cfm_1375.html
University of Sioux Falls,Sioux Falls,SD,57105,COMPETITIVE,searchpage-profile.cfm_1376.html
University of South Dakota,Vermillion,SD,57069,COMPETITIVE,searchpage-profile.cfm_1377.html
Aquinas College,Nashville,TN,37205,COMPETITIVE+,searchpage-profile.cfm_1378.html
Austin Peay State University,Clarksville,TN,37044,COMPETITIVE,searchpage-profile.cfm_1379.html
Sonoma State University,Rohnert Park,CA,94928,COMPETITIVE,searchpage-profile.cfm_138.html
Belmont University,Nashville,TN,37212,VERY COMPETITIVE,searchpage-profile.cfm_1381.html
Bethel University,McKenzie,TN,38201,COMPETITIVE,searchpage-profile.cfm_1382.html
Bryan College,Dayton,TN,37321,COMPETITIVE,searchpage-profile.cfm_1383.html
Carson-Newman University,Jefferson City,TN,37760,COMPETITIVE,searchpage-profile.cfm_1384.html
Christian Brothers University,Memphis,TN,38104,VERY COMPETITIVE,searchpage-profile.cfm_1385.html
Cumberland University,Lebanon,TN,37087,COMPETITIVE,searchpage-profile.cfm_1387.html
Lipscomb University,Nashville,TN,37204,VERY COMPETITIVE,searchpage-profile.cfm_1388.html
East Tennessee State University,Johnson City,TN,37614,COMPETITIVE,searchpage-profile.cfm_1389.html
Simpson University,Redding,CA,96003,COMPETITIVE,searchpage-profile.cfm_139.html
Fisk University,Nashville,TN,37208,LESS COMPETITIVE,searchpage-profile.cfm_1390.html
Freed-Hardeman University,Henderson,TN,38340,COMPETITIVE,searchpage-profile.cfm_1391.html
King University,Bristol,TN,37620,COMPETITIVE,searchpage-profile.cfm_1392.html
Lane College,Jackson,TN,38301,COMPETITIVE,searchpage-profile.cfm_1395.html
Lee University,Cleveland,TN,37320,COMPETITIVE,searchpage-profile.cfm_1396.html
LeMoyne-Owen College,Memphis,TN,38126,COMPETITIVE,searchpage-profile.cfm_1397.html
Lincoln Memorial University,Harrogate,TN,37752,COMPETITIVE,searchpage-profile.cfm_1398.html
Maryville College,Maryville,TN,37804,COMPETITIVE,searchpage-profile.cfm_1399.html
Memphis College of Art,Memphis,TN,38104,COMPETITIVE,searchpage-profile.cfm_1400.html
Middle Tennessee State University,Murfreesboro,TN,37132,COMPETITIVE,searchpage-profile.cfm_1401.html
Milligan College,Milligan College,TN,37682,COMPETITIVE,searchpage-profile.cfm_1402.html
Rhodes College,Memphis,TN,38112,HIGHLY COMPETITIVE,searchpage-profile.cfm_1403.html
Southern Adventist University,Collegedale,TN,37315,COMPETITIVE,searchpage-profile.cfm_1404.html
Tennessee State University,Nashville,TN,37209,COMPETITIVE,searchpage-profile.cfm_1406.html
Tennessee Technological University,Cookeville,TN,38505,COMPETITIVE,searchpage-profile.cfm_1407.html
Trevecca Nazarene University,Nashville,TN,37210,COMPETITIVE,searchpage-profile.cfm_1408.html
Tusculum College,Greeneville,TN,37743,COMPETITIVE,searchpage-profile.cfm_1409.html
Thomas Aquinas College,Santa Paula,CA,93060,HIGHLY COMPETITIVE,searchpage-profile.cfm_141.html
Union University,Jackson,TN,38305,VERY COMPETITIVE,searchpage-profile.cfm_1410.html
University of Memphis,Memphis,TN,38152,COMPETITIVE,searchpage-profile.cfm_1411.html
The University of Tennessee at Chattanooga,Chattanooga,TN,37403,COMPETITIVE,searchpage-profile.cfm_1413.html
The University of Tennessee at Knoxville,Knoxville,TN,37996,VERY COMPETITIVE,searchpage-profile.cfm_1414.html
The University of Tennessee at Martin,Martin,TN,38238,COMPETITIVE,searchpage-profile.cfm_1415.html
Sewanee: The University of the South,Sewanee,TN,37383,MOST COMPETITIVE,searchpage-profile.cfm_1416.html
Vanderbilt University,Nashville,TN,37203,MOST COMPETITIVE,searchpage-profile.cfm_1417.html
Abilene Christian University,Abilene,TX,79699,COMPETITIVE+,searchpage-profile.cfm_1418.html
Angelo State University,San Angelo,TX,76909,NON COMPETITIVE,searchpage-profile.cfm_1419.html
Stanford University,Stanford,CA,94305,MOST COMPETITIVE,searchpage-profile.cfm_142.html
Austin College,Sherman,TX,75090,VERY COMPETITIVE,searchpage-profile.cfm_1420.html
Baylor University,Waco,TX,76798,HIGHLY COMPETITIVE,searchpage-profile.cfm_1421.html
Concordia University Texas,Austin,TX,78705,COMPETITIVE,searchpage-profile.cfm_1423.html
Dallas Baptist University,Dallas,TX,75211,COMPETITIVE,searchpage-profile.cfm_1424.html
East Texas Baptist University,Marshall,TX,75670,COMPETITIVE,searchpage-profile.cfm_1426.html
Hardin-Simmons University,Abilene,TX,79698,COMPETITIVE,searchpage-profile.cfm_1427.html
Houston Baptist University,Houston,TX,77074,COMPETITIVE,searchpage-profile.cfm_1428.html
Howard Payne University,Brownwood,TX,76801,COMPETITIVE,searchpage-profile.cfm_1429.html
Scripps College,Claremont,CA,91711,MOST COMPETITIVE,searchpage-profile.cfm_143.html
Huston-Tillotson University,Austin,TX,78702,LESS COMPETITIVE,searchpage-profile.cfm_1430.html
Jarvis Christian College,Hawkins,TX,75765,NONCOMPETITIVE,searchpage-profile.cfm_1431.html
Lamar University,Beaumont,TX,77710,LESS COMPETITIVE,searchpage-profile.cfm_1432.html
LeTourneau University,Longview,TX,75607,VERY COMPETITIVE,searchpage-profile.cfm_1433.html
Lubbock Christian University,Lubbock,TX,79407,COMPETITIVE,searchpage-profile.cfm_1434.html
McMurry University,Abilene,TX,79697,LESS COMPETITIVE,searchpage-profile.cfm_1435.html
Midwestern State University,Wichita Falls,TX,76308,COMPETITIVE,searchpage-profile.cfm_1436.html
Northwood University - Texas,Cedar Hill,TX,75104,LESS COMPETITIVE,searchpage-profile.cfm_1437.html
Our Lady of the Lake University,San Antonio,TX,78207,LESS COMPETITIVE,searchpage-profile.cfm_1438.html
Paul Quinn College,Dallas,TX,75241,LESS COMPETITIVE,searchpage-profile.cfm_1439.html
University of California at Davis,Davis,CA,95616,HIGHLY COMPETITIVE,searchpage-profile.cfm_144.html
Prairie View A&M University,Prairie View,TX,77446,LESS COMPETITIVE,searchpage-profile.cfm_1440.html
Rice University,Houston,TX,77251,MOST COMPETITIVE,searchpage-profile.cfm_1441.html
St. Edward's University,Austin,TX,78704,VERY COMPETITIVE,searchpage-profile.cfm_1442.html
St. Mary's University,San Antonio,TX,78228,COMPETITIVE,searchpage-profile.cfm_1443.html
Sam Houston State University,Huntsville,TX,77341,COMPETITIVE,searchpage-profile.cfm_1444.html
Schreiner University,Kerrville,TX,78028,LESS COMPETITIVE,searchpage-profile.cfm_1445.html
Southern Methodist University,Dallas,TX,75275,MOST COMPETITIVE,searchpage-profile.cfm_1446.html
Texas State University,San Marcos,TX,78666,COMPETITIVE,searchpage-profile.cfm_1447.html
Southwestern Adventist University,Keene,TX,76059,LESS COMPETITIVE,searchpage-profile.cfm_1448.html
Southwestern University,Georgetown,TX,78626,VERY COMPETITIVE,searchpage-profile.cfm_1450.html
Stephen F. Austin State University,Nacogdoches,TX,75962,LESS COMPETITIVE,searchpage-profile.cfm_1451.html
Sul Ross State University,Alpine,TX,79832,LESS COMPETITIVE,searchpage-profile.cfm_1452.html
Tarleton State University,Stephenville,TX,76402,LESS COMPETITIVE,searchpage-profile.cfm_1453.html
Texas A&M University,College Station,TX,77843,VERY COMPETITIVE+,searchpage-profile.cfm_1455.html
Texas A&M University at Commerce,Commerce,TX,75429,COMPETITIVE,searchpage-profile.cfm_1456.html
Texas A&M University at Galveston,Galveston,TX,77553,COMPETITIVE,searchpage-profile.cfm_1457.html
Texas A&M University at Kingsville,Kingsville,TX,78363,LESS COMPETITIVE,searchpage-profile.cfm_1458.html
University of California at Berkeley,Berkeley,CA,94720,MOST COMPETITIVE,searchpage-profile.cfm_146.html
Texas Christian University,Fort Worth,TX,76129,HIGHLY COMPETITIVE,searchpage-profile.cfm_1460.html
Texas Lutheran University,Seguin,TX,78155,COMPETITIVE,searchpage-profile.cfm_1462.html
Texas Southern University,Houston,TX,77004,LESS COMPETITIVE,searchpage-profile.cfm_1463.html
Texas Tech University,Lubbock,TX,79409,COMPETITIVE+,searchpage-profile.cfm_1465.html
Texas Wesleyan University,Fort Worth,TX,76105,COMPETITIVE,searchpage-profile.cfm_1466.html
Texas Woman's University,Denton,TX,76204,LESS COMPETITIVE,searchpage-profile.cfm_1467.html
Trinity University,San Antonio,TX,78212,HIGHLY COMPETITIVE+,searchpage-profile.cfm_1468.html
University of Dallas,Irving,TX,75062,VERY COMPETITIVE+,searchpage-profile.cfm_1469.html
University of California at Irvine,Irvine,CA,92697,VERY COMPETITIVE,searchpage-profile.cfm_147.html
University of Houston,Houston,TX,77004,VERY COMPETITIVE,searchpage-profile.cfm_1471.html
University of Houston-Downtown,Houston,TX,77002,COMPETITIVE,searchpage-profile.cfm_1472.html
University of Mary Hardin-Baylor,Belton,TX,76513,COMPETITIVE+,searchpage-profile.cfm_1473.html
University of North Texas,Denton,TX,76203,COMPETITIVE,searchpage-profile.cfm_1474.html
University of St. Thomas - Houston,Houston,TX,77006,VERY COMPETITIVE,searchpage-profile.cfm_1475.html
University of Texas at Arlington,Arlington,TX,76019,LESS COMPETITIVE,searchpage-profile.cfm_1477.html
University of Texas at Austin,Austin,TX,78712,HIGHLY COMPETITIVE,searchpage-profile.cfm_1478.html
University of California at Los Angeles,Los Angeles,CA,90095,MOST COMPETITIVE,searchpage-profile.cfm_148.html
University of Texas at Dallas,Richardson,TX,75080,VERY COMPETITIVE+,searchpage-profile.cfm_1480.html
University of Texas at El Paso,El Paso,TX,79968,NONCOMPETITIVE,searchpage-profile.cfm_1481.html
University of Texas at San Antonio,San Antonio,TX,78249,COMPETITIVE,searchpage-profile.cfm_1482.html
University of Texas Rio Grande Valley,Edinburg,TX,78539,NONCOMPETITIVE,searchpage-profile.cfm_1483.html
University of the Incarnate Word,San Antonio,TX,78209,LESS COMPETITIVE,searchpage-profile.cfm_1484.html
Wayland Baptist University,Plainview,TX,79072,LESS COMPETITIVE,searchpage-profile.cfm_1485.html
West Texas A&M University,Canyon,TX,79016,COMPETITIVE,searchpage-profile.cfm_1486.html
Wiley College,Marshall,TX,75670,COMPETITIVE,searchpage-profile.cfm_1487.html
Brigham Young University,Provo,UT,84602,HIGHLY COMPETITIVE,searchpage-profile.cfm_1488.html
Southern Utah University,Cedar City,UT,84720,COMPETITIVE,searchpage-profile.cfm_1489.html
University of California San Diego,La Jolla,CA,92093,MOST COMPETITIVE,searchpage-profile.cfm_149.html
The University of Utah,Salt Lake City,UT,84112,VERY COMPETITIVE,searchpage-profile.cfm_1490.html
Utah State University,Logan,UT,84322,COMPETITIVE,searchpage-profile.cfm_1491.html
Weber State University,Ogden,UT,84408,COMPETITIVE,searchpage-profile.cfm_1493.html
Westminster College,Salt Lake City,UT,84105,COMPETITIVE+,searchpage-profile.cfm_1494.html
Bennington College,Bennington,VT,05201,MOST COMPETITIVE,searchpage-profile.cfm_1495.html
Castleton University,Castleton,VT,05735,COMPETITIVE,searchpage-profile.cfm_1497.html
Champlain College,Burlington,VT,05402,COMPETITIVE+,searchpage-profile.cfm_1498.html
College of St Joseph,Rutland,VT,05701,LESS COMPETITIVE,searchpage-profile.cfm_1499.html
University of California at Riverside,Riverside,CA,92521,COMPETITIVE+,searchpage-profile.cfm_150.html
Goddard College,Plainfield,VT,05667,VERY  COMPETITIVE,searchpage-profile.cfm_1500.html
Green Mountain College,Poultney,VT,05764,LESS COMPETITIVE,searchpage-profile.cfm_1501.html
Johnson State College,Johnson,VT,05656,COMPETITIVE,searchpage-profile.cfm_1502.html
Lyndon State College,Lyndonville,VT,05851,COMPETITIVE,searchpage-profile.cfm_1503.html
Marlboro College,Marlboro,VT,05344,VERY COMPETITIVE+,searchpage-profile.cfm_1504.html
Middlebury College,Middlebury,VT,05753,MOST COMPETITIVE,searchpage-profile.cfm_1505.html
Norwich University,Northfield,VT,05663,COMPETITIVE,searchpage-profile.cfm_1506.html
Saint Michael's College,Colchester,VT,05439,VERY COMPETITIVE+,searchpage-profile.cfm_1507.html
Southern Vermont College,Bennington,VT,05201,LESS COMPETITIVE,searchpage-profile.cfm_1509.html
University of California at Santa Barbara,Santa Barbara,CA,93106,HIGHLY COMPETITIVE,searchpage-profile.cfm_151.html
Sterling College,Craftsbury Common,VT,05827,VERY COMPETITIVE,searchpage-profile.cfm_1510.html
University of Vermont,Burlington,VT,05401,HIGHLY COMPETITIVE,searchpage-profile.cfm_1512.html
Vermont Technical College,Randolph Center,VT,05061,COMPETITIVE,searchpage-profile.cfm_1514.html
Averett University,Danville,VA,24541,LESS COMPETITIVE,searchpage-profile.cfm_1516.html
Bluefield College,Bluefield,VA,24605,COMPETITIVE+,searchpage-profile.cfm_1517.html
Bridgewater College,Bridgewater,VA,22812,COMPETITIVE,searchpage-profile.cfm_1518.html
Christendom College,Front Royal,VA,22630,VERY COMPETITIVE,searchpage-profile.cfm_1519.html
"University of California, Santa Cruz",Santa Cruz,CA,95064,COMPETITIVE+,searchpage-profile.cfm_152.html
Christopher Newport University,Newport News,VA,23606,VERY COMPETITIVE+,searchpage-profile.cfm_1520.html
College of William & Mary,Williamsburg,VA,23187,MOST COMPETITIVE,searchpage-profile.cfm_1521.html
Eastern Mennonite University,Harrisonburg,VA,22802,COMPETITIVE,searchpage-profile.cfm_1522.html
Emory and Henry College,Emory,VA,24327,COMPETITIVE,searchpage-profile.cfm_1523.html
Ferrum College,Ferrum,VA,24088,COMPETITIVE,searchpage-profile.cfm_1524.html
George Mason University,Fairfax,VA,22030,VERY  COMPETITIVE,searchpage-profile.cfm_1525.html
Hampden-Sydney College,Hampden-Sydney,VA,23943,COMPETITIVE+,searchpage-profile.cfm_1526.html
Hampton University,Hampton,VA,23668,LESS COMPETITIVE,searchpage-profile.cfm_1527.html
Hollins University,Roanoke,VA,24020,VERY COMPETITIVE,searchpage-profile.cfm_1528.html
James Madison University,Harrisonburg,VA,22807,VERY COMPETITIVE,searchpage-profile.cfm_1529.html
University of Redlands,Redlands,CA,92373,VERY COMPETITIVE,searchpage-profile.cfm_153.html
Liberty University,Lynchburg,VA,24502,COMPETITIVE,searchpage-profile.cfm_1530.html
Longwood University,Farmville,VA,23909,COMPETITIVE,searchpage-profile.cfm_1531.html
Lynchburg College,Lynchburg,VA,24501,COMPETITIVE,searchpage-profile.cfm_1532.html
Mary Baldwin University,Staunton,VA,24401,COMPETITIVE,searchpage-profile.cfm_1533.html
University of Mary Washington,Fredericksburg,VA,22401,VERY  COMPETITIVE,searchpage-profile.cfm_1534.html
Marymount University,Arlington,VA,22207,LESS COMPETITIVE,searchpage-profile.cfm_1535.html
Norfolk State University,Norfolk,VA,23504,LESS COMPETITIVE,searchpage-profile.cfm_1536.html
Old Dominion University,Norfolk,VA,23529,COMPETITIVE,searchpage-profile.cfm_1537.html
Radford University,Radford,VA,24142,LESS COMPETITIVE,searchpage-profile.cfm_1538.html
Randolph-Macon College,Ashland,VA,23005,COMPETITIVE,searchpage-profile.cfm_1539.html
University of La Verne,La Verne,CA,91750,COMPETITIVE,searchpage-profile.cfm_154.html
Randolph College,Lynchburg,VA,24503,VERY COMPETITIVE,searchpage-profile.cfm_1540.html
Roanoke College,Salem,VA,24153,VERY COMPETITIVE,searchpage-profile.cfm_1541.html
Shenandoah University,Winchester,VA,22601,COMPETITIVE,searchpage-profile.cfm_1543.html
Sweet Briar College,Sweet Briar,VA,24595,Not Available,searchpage-profile.cfm_1544.html
University of Richmond,University of Richmond,VA,23173,MOST COMPETITIVE,searchpage-profile.cfm_1545.html
University of Virginia,Charlottesville,VA,22904,MOST COMPETITIVE,searchpage-profile.cfm_1546.html
The University of Virginia's College at Wise,Wise,VA,24293,LESS COMPETITIVE,searchpage-profile.cfm_1547.html
Virginia Commonwealth University,Richmond,VA,23284,COMPETITIVE,searchpage-profile.cfm_1548.html
American Jewish University - College of Arts and Sciences,Los Angeles,CA,90077,COMPETITIVE,searchpage-profile.cfm_155.html
Virginia Military Institute,Lexington,VA,24450,COMPETITIVE+,searchpage-profile.cfm_1550.html
Virginia Polytechnic Institute and State University,Blacksburg,VA,24061,HIGHLY COMPETITIVE,searchpage-profile.cfm_1551.html
Virginia State University,Petersburg,VA,23806,COMPETITIVE+,searchpage-profile.cfm_1552.html
Virginia Union University,Richmond,VA,23220,COMPETITIVE,searchpage-profile.cfm_1553.html
Virginia Wesleyan College,Norfolk,VA,23502,LESS COMPETITIVE,searchpage-profile.cfm_1554.html
Washington and Lee University,Lexington,VA,24450,MOST COMPETITIVE,searchpage-profile.cfm_1555.html
Central Washington University,Ellensburg,WA,98926,COMPETITIVE,searchpage-profile.cfm_1557.html
City University of Seattle,Seattle,WA,98121,NON COMPETITIVE,searchpage-profile.cfm_1558.html
Cornish College of the Arts,Seattle,WA,98121,SPECIAL,searchpage-profile.cfm_1559.html
University of San Francisco,San Francisco,CA,94117,VERY COMPETITIVE,searchpage-profile.cfm_156.html
Eastern Washington University,Cheney,WA,99004,LESS COMPETITIVE,searchpage-profile.cfm_1560.html
The Evergreen State College,Olympia,WA,98505,COMPETITIVE,searchpage-profile.cfm_1561.html
Gonzaga University,Spokane,WA,99258,HIGHLY COMPETITIVE,searchpage-profile.cfm_1562.html
Heritage University,Toppenish,WA,98948,NONCOMPETITIVE,searchpage-profile.cfm_1564.html
Northwest University,Kirkland,WA,98033,VERY COMPETITIVE,searchpage-profile.cfm_1565.html
Pacific Lutheran University,Tacoma,WA,98447,VERY COMPETITIVE,searchpage-profile.cfm_1566.html
Saint Martin's University,Lacey,WA,98503,COMPETITIVE,searchpage-profile.cfm_1567.html
Seattle Pacific University,Seattle,WA,98119,COMPETITIVE+,searchpage-profile.cfm_1568.html
Seattle University,Seattle,WA,98122,VERY COMPETITIVE+,searchpage-profile.cfm_1569.html
University of the Pacific,Stockton,CA,95211,VERY COMPETITIVE,searchpage-profile.cfm_157.html
University of Puget Sound,Tacoma,WA,98416,VERY COMPETITIVE+,searchpage-profile.cfm_1571.html
University of Washington,Seattle,WA,98195,VERY COMPETITIVE,searchpage-profile.cfm_1572.html
Walla Walla University,College Place,WA,99324,NONCOMPETITIVE,searchpage-profile.cfm_1573.html
Washington State University,Pullman,WA,99164,COMPETITIVE,searchpage-profile.cfm_1574.html
Western Washington University,Bellingham,WA,98225,COMPETITIVE+,searchpage-profile.cfm_1575.html
Whitman College,Walla Walla,WA,99362,MOST COMPETITIVE,searchpage-profile.cfm_1576.html
Whitworth University,Spokane,WA,99251,VERY COMPETITIVE,searchpage-profile.cfm_1577.html
Alderson Broaddus University,Philippi,WV,26416,COMPETITIVE,searchpage-profile.cfm_1578.html
Bethany College,Bethany,WV,26032,NONCOMPETITIVE,searchpage-profile.cfm_1579.html
University of Southern California,Los Angeles,CA,90089,COMPETITIVE,searchpage-profile.cfm_158.html
Bluefield State College,Bluefield,WV,24701,LESS COMPETITIVE,searchpage-profile.cfm_1580.html
Concord University,Athens,WV,24712,COMPETITIVE,searchpage-profile.cfm_1581.html
Davis & Elkins College,Elkins,WV,26241,LESS COMPETITIVE,searchpage-profile.cfm_1582.html
Fairmont State University,Fairmont,WV,26554,COMPETITIVE,searchpage-profile.cfm_1583.html
Glenville State College,Glenville,WV,26351,NONCOMPETITIVE,searchpage-profile.cfm_1584.html
Marshall University,Huntington,WV,25755,COMPETITIVE,searchpage-profile.cfm_1585.html
Ohio Valley University,Vienna,WV,26105,COMPETITIVE,searchpage-profile.cfm_1587.html
Salem International University,Salem,WV,26426,LESS COMPETITIVE,searchpage-profile.cfm_1588.html
"Shepherd University, West Virginia",Shepherdstown,WV,25443,COMPETITIVE,searchpage-profile.cfm_1589.html
University of San Diego,San Diego,CA,92110,VERY COMPETITIVE+,searchpage-profile.cfm_159.html
University of Charleston,Charleston,WV,25304,COMPETITIVE,searchpage-profile.cfm_1590.html
West Liberty University,West Liberty,WV,26074,COMPETITIVE,searchpage-profile.cfm_1591.html
West Virginia State University,Institute,WV,25112,NONCOMPETITIVE,searchpage-profile.cfm_1592.html
West Virginia University,Morgantown,WV,26506,COMPETITIVE,searchpage-profile.cfm_1593.html
West Virginia University Institute of Technology,Montgomery,WV,25136,NONCOMPETITIVE,searchpage-profile.cfm_1594.html
West Virginia Wesleyan College,Buckhannon,WV,26201,COMPETITIVE,searchpage-profile.cfm_1595.html
Wheeling Jesuit University,Wheeling,WV,26003,LESS COMPETITIVE,searchpage-profile.cfm_1596.html
Alverno College,Milwaukee,WI,53234,LESS COMPETITIVE,searchpage-profile.cfm_1597.html
Beloit College,Beloit,WI,53511,HIGHLY COMPETITIVE,searchpage-profile.cfm_1598.html
Cardinal Stritch University,Milwaukee,WI,53217,COMPETITIVE,searchpage-profile.cfm_1599.html
Woodbury University,Burbank,CA,91510,LESS COMPETITIVE,searchpage-profile.cfm_160.html
Carroll University,Waukesha,WI,53186,COMPETITIVE+,searchpage-profile.cfm_1600.html
Carthage College,Kenosha,WI,53140,COMPETITIVE,searchpage-profile.cfm_1601.html
Concordia University Wisconsin,Mequon,WI,53097,COMPETITIVE,searchpage-profile.cfm_1602.html
Edgewood College,Madison,WI,53711,COMPETITIVE,searchpage-profile.cfm_1603.html
Lakeland University,Plymouth,WI,53073,COMPETITIVE,searchpage-profile.cfm_1604.html
Lawrence University,Appleton,WI,54911,HIGHLY COMPETITIVE,searchpage-profile.cfm_1605.html
Marian University,Fond du Lac,WI,54935,LESS COMPETITIVE,searchpage-profile.cfm_1606.html
Marquette University,Milwaukee,WI,53201,VERY COMPETITIVE+,searchpage-profile.cfm_1607.html
Milwaukee Institute of Art and Design,Milwaukee,WI,53202,SPECIAL,searchpage-profile.cfm_1608.html
Milwaukee School of Engineering,Milwaukee,WI,53202,HIGHLY COMPETITIVE,searchpage-profile.cfm_1609.html
Vanguard University of Southern California,Costa Mesa,CA,92626,VERY COMPETITIVE,searchpage-profile.cfm_161.html
Mount Mary University,Milwaukee,WI,53222,LESS COMPETITIVE,searchpage-profile.cfm_1610.html
Northland College,Ashland,WI,54806,COMPETITIVE+,searchpage-profile.cfm_1612.html
Ripon College,Ripon,WI,54971,COMPETITIVE+,searchpage-profile.cfm_1613.html
St. Norbert College,De Pere,WI,54115,VERY COMPETITIVE,searchpage-profile.cfm_1614.html
Silver Lake College of the Holy Family,Manitowoc,WI,54220,LESS COMPETITIVE,searchpage-profile.cfm_1615.html
University of Wisconsin-Eau Claire,Eau Claire,WI,54701,VERY COMPETITIVE,searchpage-profile.cfm_1617.html
University of Wisconsin-Green Bay,Green Bay,WI,54311,COMPETITIVE,searchpage-profile.cfm_1618.html
University of Wisconsin-La Crosse,La Crosse,WI,54601,COMPETITIVE+,searchpage-profile.cfm_1619.html
Whittier College,Whittier,CA,90608,COMPETITIVE,searchpage-profile.cfm_162.html
University of Wisconsin-Madison,Madison,WI,53706,MOST COMPETITIVE,searchpage-profile.cfm_1620.html
University of Wisconsin-Milwaukee,Milwaukee,WI,53211,COMPETITIVE,searchpage-profile.cfm_1621.html
University of Wisconsin-Oshkosh,Oshkosh,WI,54901,COMPETITIVE,searchpage-profile.cfm_1622.html
University of Wisconsin-Parkside,Kenosha,WI,53141,COMPETITIVE,searchpage-profile.cfm_1623.html
University of Wisconsin-Platteville,Platteville,WI,53818,VERY COMPETITIVE,searchpage-profile.cfm_1624.html
University of Wisconsin-River Falls,River Falls,WI,54022,COMPETITIVE,searchpage-profile.cfm_1625.html
University of Wisconsin-Stevens Point,Stevens Point,WI,54481,COMPETITIVE,searchpage-profile.cfm_1626.html
University of Wisconsin-Stout,Menomonie,WI,54751,COMPETITIVE,searchpage-profile.cfm_1627.html
University of Wisconsin-Superior,Superior,WI,54880,COMPETITIVE,searchpage-profile.cfm_1628.html
University of Wisconsin-Whitewater,Whitewater,WI,53190,COMPETITIVE,searchpage-profile.cfm_1629.html
Westmont College,Santa Barbara,CA,93108,HIGHLY COMPETITIVE,searchpage-profile.cfm_163.html
Viterbo University,La Crosse,WI,54601,COMPETITIVE,searchpage-profile.cfm_1630.html
Wisconsin Lutheran College,Milwaukee,WI,53226,VERY COMPETITIVE,searchpage-profile.cfm_1631.html
University of Wyoming,Laramie,WY,82071,COMPETITIVE+,searchpage-profile.cfm_1632.html
Concordia University,Montreal,PQ H3G IM8,N/A,Not Available,searchpage-profile.cfm_1633.html
Dalhousie University,Halifax,NS B3H 4R2,N/A,Not Available,searchpage-profile.cfm_1634.html
Universite Laval,Quebec,PQ G1K 7P4,N/A,Not Available,searchpage-profile.cfm_1635.html
McGill University,Montreal,PQ H3A oG4,N/A,Not Available,searchpage-profile.cfm_1636.html
McMaster University,Hamilton,ON L8S 4K1,N/A,Not Available,searchpage-profile.cfm_1637.html
Memorial University of Newfoundland,St. John's,NF A1C 5S7,N/A,Not Available,searchpage-profile.cfm_1638.html
Queen's University,Kingston,ON K7L 3N6,N/A,Not Available,searchpage-profile.cfm_1639.html
Colorado School of Mines,Golden,CO,80401,MOST COMPETITIVE,searchpage-profile.cfm_164.html
Ryerson University,Toronto,ON M5B 2K3,N/A,Not Available,searchpage-profile.cfm_1640.html
Simon Fraser University,Burnaby,BC V5A 1S6,N/A,Not Available,searchpage-profile.cfm_1641.html
University of Alberta,Edmonton,AB T6G 2M7,N/A,Not Available,searchpage-profile.cfm_1642.html
University of British Columbia,Vancouver,BC V6T 1Z1,N/A,Not Available,searchpage-profile.cfm_1643.html
University of Calgary,Calgary,AB T2N 1N4,N/A,Not Available,searchpage-profile.cfm_1644.html
University of Guelph,Guelph,ON N1G 2W1,N/A,Not Available,searchpage-profile.cfm_1645.html
Université de Montréal,Montreal,PQ H3C 3J7,N/A,Not Available,searchpage-profile.cfm_1646.html
University of Ottawa,Ottawa,ON K1N 6N5,N/A,Not Available,searchpage-profile.cfm_1647.html
University of Saskatchewan,Saskatoon,SK S7N 5A2,N/A,Not Available,searchpage-profile.cfm_1648.html
University of Toronto,Toronto,ON M5S 1A1,N/A,Not Available,searchpage-profile.cfm_1649.html
Colorado Christian University,Lakewood,CO,80226,VERY COMPETITIVE,searchpage-profile.cfm_165.html
University of Victoria,Victoria,BC V8P 5C2,N/A,Not Available,searchpage-profile.cfm_1650.html
University of Waterloo,Waterloo,ON N2L 3G1,N/A,Not Available,searchpage-profile.cfm_1651.html
University of Western Ontario,London,ON N6A 3K7,N/A,Not Available,searchpage-profile.cfm_1652.html
University of Windsor,Windsor,ON N9B 3P4,N/A,Not Available,searchpage-profile.cfm_1653.html
York University,Toronto (North York),ON M3J 1P3,N/A,Not Available,searchpage-profile.cfm_1654.html
Deree - The American College of Greece,Aghia Paraskevi,15342,N/A,Not Available,searchpage-profile.cfm_1655.html
The American University of Cairo,New Cairo,11835,N/A,Not Available,searchpage-profile.cfm_1656.html
The American University of Paris,Paris,75007,N/A,Not Available,searchpage-profile.cfm_1657.html
The American University of Rome,Rome,00153,N/A,Not Available,searchpage-profile.cfm_1658.html
Franklin University Switzerland,"Sorengo, Lugano, 6924",N/A,N/A,Not Available,searchpage-profile.cfm_1659.html
Adams State University,Alamosa,CO,81101,LESS COMPETITIVE,searchpage-profile.cfm_166.html
John Cabot University,Rome,00165,N/A,Not Available,searchpage-profile.cfm_1660.html
"Richmond, The American International University in London","Richmond, Surrey, TW10 6JP",N/A,N/A,Not Available,searchpage-profile.cfm_1661.html
The American University of Cairo,New Cairo,11835,N/A,Not Available,searchpage-profile.cfm_1662.html
Deree - The American College of Greece,Aghia Paraskevi,15342,N/A,Not Available,searchpage-profile.cfm_1663.html
The American University of Paris,Paris,75007,N/A,Not Available,searchpage-profile.cfm_1664.html
John Cabot University,Rome,00165,N/A,Not Available,searchpage-profile.cfm_1665.html
The American University of Rome,Rome,00153,N/A,Not Available,searchpage-profile.cfm_1666.html
Franklin University Switzerland,"Sorengo, Lugano, 6924",N/A,N/A,Not Available,searchpage-profile.cfm_1667.html
"Richmond, The American International University in London","Richmond, Surrey, TW10 6JP",N/A,N/A,Not Available,searchpage-profile.cfm_1668.html
Colorado College,Colorado Springs,CO,80903,MOST COMPETITIVE,searchpage-profile.cfm_167.html
Fort Lewis College,Durango,CO,81301,COMPETITIVE,searchpage-profile.cfm_168.html
Colorado State University,Fort Collins,CO,80523,VERY COMPETITIVE,searchpage-profile.cfm_169.html
Colorado Technical University,Colorado Springs,CO,80907,NON COMPETITIVE,searchpage-profile.cfm_170.html
Colorado Mesa University,Grand Junction,CO,81501,LESS COMPETITIVE,searchpage-profile.cfm_171.html
Regis University,Denver,CO,80221,COMPETITIVE,searchpage-profile.cfm_172.html
Metropolitan State University of Denver,Denver,CO,80217,LESS COMPETITIVE,searchpage-profile.cfm_173.html
Naropa University,Boulder,CO,80302,NONCOMPETITIVE,searchpage-profile.cfm_174.html
United States Air Force Academy,Colorado Springs,CO,80840,COMPETITIVE,searchpage-profile.cfm_175.html
University of Colorado Colorado Springs,Colorado Springs,CO,80918,COMPETITIVE,searchpage-profile.cfm_176.html
University of Colorado Denver,Denver,CO,80204,COMPETITIVE,searchpage-profile.cfm_178.html
University of Colorado Boulder,Boulder,CO,80309,VERY COMPETITIVE+,searchpage-profile.cfm_179.html
University of Northern Colorado,Greeley,CO,80634,COMPETITIVE,searchpage-profile.cfm_180.html
University of Denver,Denver,CO,80208,VERY COMPETITIVE+,searchpage-profile.cfm_181.html
Colorado State University-Pueblo,Pueblo,CO,81001,COMPETITIVE,searchpage-profile.cfm_182.html
Western State Colorado University,Gunnison,CO,81231,COMPETITIVE,searchpage-profile.cfm_183.html
Albertus Magnus College,New Haven,CT,06511,LESS COMPETITIVE,searchpage-profile.cfm_184.html
Charter Oak State College,New Britain,CT,06053,LESS COMPETITIVE,searchpage-profile.cfm_185.html
Connecticut College,New London,CT,06320,MOST COMPETITIVE,searchpage-profile.cfm_186.html
Central Connecticut State University,New Britain,CT,06050,COMPETITIVE,searchpage-profile.cfm_187.html
Eastern Connecticut State University,Willimantic,CT,06226,COMPETITIVE,searchpage-profile.cfm_189.html
Fairfield University,Fairfield,CT,06824,VERY COMPETITIVE+,searchpage-profile.cfm_190.html
Mitchell College,New London,CT,06320,COMPETITIVE,searchpage-profile.cfm_192.html
Quinnipiac University,Hamden,CT,06518,COMPETITIVE,searchpage-profile.cfm_193.html
Southern Connecticut State University,New Haven,CT,06515,LESS COMPETITIVE,searchpage-profile.cfm_194.html
University of Saint Joseph,West Hartford,CT,06117,COMPETITIVE,searchpage-profile.cfm_195.html
Sacred Heart University,Fairfield,CT,06825,COMPETITIVE,searchpage-profile.cfm_196.html
University of Bridgeport,Bridgeport,CT,06604,LESS COMPETITIVE,searchpage-profile.cfm_197.html
Post University,Waterbury,CT,06723,COMPETITIVE,searchpage-profile.cfm_198.html
United States Coast Guard Academy,New London,CT,06320,MOST COMPETITIVE,searchpage-profile.cfm_199.html
Trinity College,Hartford,CT,06106,HIGHLY COMPETITIVE+,searchpage-profile.cfm_200.html
University of Connecticut,Storrs,CT,06269,HIGHLY COMPETITIVE,searchpage-profile.cfm_201.html
University of Hartford,West Hartford,CT,06117,COMPETITIVE,searchpage-profile.cfm_202.html
University of New Haven,West Haven,CT,06516,COMPETITIVE,searchpage-profile.cfm_203.html
Wesleyan University,Middletown,CT,06459,MOST COMPETITIVE,searchpage-profile.cfm_204.html
Western Connecticut State University,Danbury,CT,06810,LESS COMPETITIVE,searchpage-profile.cfm_205.html
Yale University,New Haven,CT,06511,MOST COMPETITIVE,searchpage-profile.cfm_206.html
Goldey-Beacom College,Wilmington,DE,19808,COMPETITIVE,searchpage-profile.cfm_207.html
Delaware State University,Dover,DE,19901,NONCOMPETITIVE,searchpage-profile.cfm_208.html
Wesley College,Dover,DE,19901,LESS COMPETITIVE,searchpage-profile.cfm_209.html
University of Delaware,Newark,DE,19716,VERY COMPETITIVE+,searchpage-profile.cfm_210.html
Wilmington University,New Castle,DE,19720,NONCOMPETITIVE,searchpage-profile.cfm_211.html
American University,Washington,DC,20016,HIGHLY COMPETITIVE+,searchpage-profile.cfm_212.html
The Catholic University of America,Washington,DC,20064,VERY COMPETITIVE,searchpage-profile.cfm_214.html
Gallaudet University,Washington,DC,20002,LESS COMPETITIVE,searchpage-profile.cfm_215.html
Howard University,Washington,DC,20059,COMPETITIVE+,searchpage-profile.cfm_217.html
Trinity Washington University,Washington,DC,20017,COMPETITIVE+,searchpage-profile.cfm_219.html
Barry University,Miami Shores,FL,33161,COMPETITIVE,searchpage-profile.cfm_220.html
University of the District of Columbia,Washington,DC,20008,LESS COMPETITIVE,searchpage-profile.cfm_221.html
Beacon College,Leesburg,FL,34748,COMPETITIVE,searchpage-profile.cfm_222.html
Carlos Albizu University,Miami,FL,33172,LESS COMPETITIVE,searchpage-profile.cfm_223.html
Bethune-Cookman University,Daytona Beach,FL,32114,COMPETITIVE,searchpage-profile.cfm_224.html
Edward Waters College,Jacksonville,FL,32209,NONCOMPETITIVE,searchpage-profile.cfm_226.html
Eckerd College,St. Petersburg,FL,33711,COMPETITIVE,searchpage-profile.cfm_227.html
Flagler College,St. Augustine,FL,32084,COMPETITIVE,searchpage-profile.cfm_228.html
Embry-Riddle Aeronautical University - Daytona Beach,Daytona Beach,FL,32114,VERY COMPETITIVE,searchpage-profile.cfm_229.html
Florida Agricultural and Mechanical University,Tallahassee,FL,32307,COMPETITIVE,searchpage-profile.cfm_230.html
Florida Atlantic University,Boca Raton,FL,33431,COMPETITIVE,searchpage-profile.cfm_231.html
Adventist University of Health Sciences,Orlando,FL,32803,NONCOMPETITIVE,searchpage-profile.cfm_232.html
Florida Gulf Coast University,Fort Myers,FL,33965,COMPETITIVE,searchpage-profile.cfm_233.html
Florida Institute of Technology,Melbourne,FL,32901,VERY COMPETITIVE,searchpage-profile.cfm_234.html
Florida International University,Miami,FL,33199,COMPETITIVE+,searchpage-profile.cfm_235.html
The George Washington University,Washington,DC,20052,MOST COMPETITIVE,searchpage-profile.cfm_236.html
Georgetown University,Washington,DC,20057,MOST COMPETITIVE,searchpage-profile.cfm_237.html
Florida Southern College,Lakeland,FL,33801,COMPETITIVE+,searchpage-profile.cfm_238.html
Florida Memorial University,Miami Gardens,FL,33054,LESS COMPETITIVE,searchpage-profile.cfm_239.html
Florida State University,Tallahassee,FL,32306,HIGHLY COMPETITIVE,searchpage-profile.cfm_240.html
Hodges University,Naples,FL,34119,LESS COMPETITIVE,searchpage-profile.cfm_241.html
Jacksonville University,Jacksonville,FL,32211,COMPETITIVE,searchpage-profile.cfm_242.html
Lynn University,Boca Raton,FL,33431,LESS COMPETITIVE,searchpage-profile.cfm_243.html
Keiser University,West Palm Beach,FL,33411,LESS COMPETITIVE,searchpage-profile.cfm_244.html
New College of Florida,Sarasota,FL,34243,MOST COMPETITIVE,searchpage-profile.cfm_245.html
Palm Beach Atlantic University,West Palm Beach,FL,33416,COMPETITIVE,searchpage-profile.cfm_246.html
Nova Southeastern University,Fort Lauderdale,FL,33314,COMPETITIVE+,searchpage-profile.cfm_247.html
Ringling College of Art and Design,Sarasota,FL,34234,SPECIAL,searchpage-profile.cfm_248.html
Rollins College,Winter Park,FL,32789,HIGHLY COMPETITIVE,searchpage-profile.cfm_249.html
Saint Leo University,Saint Leo,FL,33574,COMPETITIVE,searchpage-profile.cfm_250.html
Southeastern University,Lakeland,FL,33801,COMPETITIVE,searchpage-profile.cfm_251.html
Stetson University,DeLand,FL,32723,VERY COMPETITIVE,searchpage-profile.cfm_253.html
University of Central Florida,Orlando,FL,32816,VERY COMPETITIVE,searchpage-profile.cfm_254.html
University of Florida,Gainesville,FL,32611,HIGHLY COMPETITIVE+,searchpage-profile.cfm_255.html
University of North Florida,Jacksonville,FL,32224,VERY COMPETITIVE,searchpage-profile.cfm_256.html
University of Miami,Coral Gables,FL,33124,MOST COMPETITIVE,searchpage-profile.cfm_257.html
University of Tampa,Tampa,FL,33606,COMPETITIVE,searchpage-profile.cfm_258.html
University of South Florida/Tampa,Tampa,FL,33620,VERY COMPETITIVE+,searchpage-profile.cfm_259.html
St. Thomas University,Miami,FL,33054,LESS COMPETITIVE,searchpage-profile.cfm_260.html
Albany State University,Albany,GA,31705,COMPETITIVE,searchpage-profile.cfm_261.html
Webber International University,Babson Park,FL,33827,COMPETITIVE,searchpage-profile.cfm_262.html
Armstrong State University,Savannah,GA,31419,COMPETITIVE,searchpage-profile.cfm_264.html
The Art Institute of Atlanta,Atlanta,GA,30328,SPECIAL,searchpage-profile.cfm_266.html
Agnes Scott College,Decatur,GA,30030,VERY COMPETITIVE+,searchpage-profile.cfm_267.html
Augusta University,Augusta,GA,30912,COMPETITIVE,searchpage-profile.cfm_268.html
University of West Florida,Pensacola,FL,32514,COMPETITIVE,searchpage-profile.cfm_269.html
Brewton-Parker College,Mt. Vernon,GA,30445,COMPETITIVE,searchpage-profile.cfm_270.html
Berry College,Mount Berry,GA,30149,COMPETITIVE+,searchpage-profile.cfm_271.html
Clayton State University,Morrow,GA,30260,COMPETITIVE,searchpage-profile.cfm_272.html
Clark Atlanta University,Atlanta,GA,30314,LESS COMPETITIVE,searchpage-profile.cfm_273.html
Covenant College,Lookout Mountain,GA,30750,VERY COMPETITIVE,searchpage-profile.cfm_274.html
Columbus State University,Columbus,GA,31907,LESS COMPETITIVE,searchpage-profile.cfm_275.html
Emory University,Atlanta,GA,30322,MOST COMPETITIVE,searchpage-profile.cfm_277.html
Fort Valley State University,Fort Valley,GA,31030,VERY COMPETITIVE,searchpage-profile.cfm_279.html
Georgia College & State University,Milledgeville,GA,31061,COMPETITIVE+,searchpage-profile.cfm_281.html
Georgia Institute of Technology,Atlanta,GA,30332,MOST COMPETITIVE,searchpage-profile.cfm_282.html
Georgia Southern University,Statesboro,GA,30458,COMPETITIVE,searchpage-profile.cfm_283.html
Georgia Southwestern State University,Americus,GA,31709,COMPETITIVE,searchpage-profile.cfm_284.html
Georgia State University,Atlanta,GA,30302,VERY COMPETITIVE,searchpage-profile.cfm_285.html
Kennesaw State University,Kennesaw,GA,30144,VERY COMPETITIVE,searchpage-profile.cfm_286.html
Morehouse College,Atlanta,GA,30314,COMPETITIVE,searchpage-profile.cfm_287.html
LaGrange College,LaGrange,GA,30240,COMPETITIVE,searchpage-profile.cfm_288.html
Mercer University,Macon,GA,31207,VERY COMPETITIVE,searchpage-profile.cfm_289.html
University of North Georgia,Dahlonega,GA,30597,COMPETITIVE,searchpage-profile.cfm_291.html
Paine College,Augusta,GA,30901,LESS COMPETITIVE,searchpage-profile.cfm_292.html
Oglethorpe University,Atlanta,GA,30319,COMPETITIVE+,searchpage-profile.cfm_293.html
Piedmont College,Demorest,GA,30535,COMPETITIVE,searchpage-profile.cfm_294.html
Reinhardt University,Waleska,GA,30183,COMPETITIVE,searchpage-profile.cfm_295.html
Savannah State University,Savannah,GA,31404,COMPETITIVE,searchpage-profile.cfm_296.html
Shorter University,Rome,GA,30165,LESS COMPETITIVE,searchpage-profile.cfm_297.html
Spelman College,Atlanta,GA,30314,COMPETITIVE,searchpage-profile.cfm_299.html
University of West Georgia,Carrollton,GA,30118,LESS COMPETITIVE,searchpage-profile.cfm_300.html
Savannah College of Art and Design,Savannah,GA,31401,COMPETITIVE,searchpage-profile.cfm_301.html
Thomas University,Thomasville,GA,31792,LESS COMPETITIVE,searchpage-profile.cfm_302.html
Toccoa Falls College,Toccoa Falls,GA,30598,COMPETITIVE,searchpage-profile.cfm_303.html
University of Georgia,Athens,GA,30602,HIGHLY COMPETITIVE,searchpage-profile.cfm_304.html
South University,Savannah,GA,31406,LESS COMPETITIVE,searchpage-profile.cfm_306.html
Valdosta State University,Valdosta,GA,31698,COMPETITIVE,searchpage-profile.cfm_307.html
Wesleyan College,Macon,GA,31210,COMPETITIVE+,searchpage-profile.cfm_308.html
Brigham Young University/Hawaii,Laie,HI,96762,COMPETITIVE,searchpage-profile.cfm_309.html
Brenau University - Women's College,Gainesville,GA,30501,LESS COMPETITIVE,searchpage-profile.cfm_310.html
Chaminade University of Honolulu,Honolulu,HI,96816,COMPETITIVE,searchpage-profile.cfm_311.html
Hawaii Pacific University,Honolulu,HI,96813,COMPETITIVE,searchpage-profile.cfm_312.html
University of Hawaii at Hilo,Hilo,HI,96720,COMPETITIVE,searchpage-profile.cfm_314.html
The College of Idaho,Caldwell,ID,83605,COMPETITIVE,searchpage-profile.cfm_315.html
Boise State University,Boise,ID,83725,COMPETITIVE,searchpage-profile.cfm_316.html
University of Hawaii at Manoa,Honolulu,HI,96822,COMPETITIVE,searchpage-profile.cfm_317.html
Idaho State University,Pocatello,ID,83209,NONCOMPETITIVE,searchpage-profile.cfm_318.html
Lewis-Clark State College,Lewiston,ID,83501,COMPETITIVE,searchpage-profile.cfm_319.html
Northwest Nazarene University,Nampa,ID,83686,COMPETITIVE,searchpage-profile.cfm_320.html
Augustana College,Rock Island,IL,61201,VERY COMPETITIVE,searchpage-profile.cfm_321.html
University of Idaho,Moscow,ID,83844,COMPETITIVE,searchpage-profile.cfm_322.html
Blackburn College,Carlinville,IL,62626,LESS COMPETITIVE,searchpage-profile.cfm_323.html
Benedictine University,Lisle,IL,60532,COMPETITIVE,searchpage-profile.cfm_325.html
Aurora University,Aurora,IL,60506,COMPETITIVE,searchpage-profile.cfm_326.html
"Concordia University, Chicago",River Forest,IL,60305,COMPETITIVE,searchpage-profile.cfm_327.html
Columbia College Chicago,Chicago,IL,60605,COMPETITIVE,searchpage-profile.cfm_328.html
Chicago State University,Chicago,IL,60628,COMPETITIVE,searchpage-profile.cfm_329.html
Bradley University,Peoria,IL,61625,VERY COMPETITIVE,searchpage-profile.cfm_330.html
Dominican University,River Forest,IL,60305,COMPETITIVE,searchpage-profile.cfm_333.html
DePaul University,Chicago,IL,60604,VERY COMPETITIVE,searchpage-profile.cfm_334.html
Eureka College,Eureka,IL,61530,COMPETITIVE,searchpage-profile.cfm_336.html
Eastern Illinois University,Charleston,IL,61920,COMPETITIVE,searchpage-profile.cfm_337.html
Greenville College,Greenville,IL,62246,COMPETITIVE,searchpage-profile.cfm_338.html
Illinois College,Jacksonville,IL,62650,VERY COMPETITIVE,searchpage-profile.cfm_339.html
Illinois Institute of Technology,Chicago,IL,60616,HIGHLY COMPETITIVE+,searchpage-profile.cfm_340.html
Illinois State University,Normal,IL,61761,VERY COMPETITIVE,searchpage-profile.cfm_341.html
Judson University,Elgin,IL,60123,COMPETITIVE,searchpage-profile.cfm_342.html
Illinois Wesleyan University,Bloomington,IL,61702,VERY COMPETITIVE+,searchpage-profile.cfm_343.html
Kendall College,Chicago,IL,60642,COMPETITIVE,searchpage-profile.cfm_344.html
Elmhurst College,Elmhurst,IL,60126,COMPETITIVE,searchpage-profile.cfm_345.html
Lake Forest College,Lake Forest,IL,60045,VERY COMPETITIVE,searchpage-profile.cfm_346.html
Knox College,Galesburg,IL,61401,VERY COMPETITIVE+,searchpage-profile.cfm_347.html
Loyola University Chicago,Chicago,IL,60660,VERY COMPETITIVE,searchpage-profile.cfm_348.html
Lewis University,Romeoville,IL,60446,COMPETITIVE,searchpage-profile.cfm_349.html
McKendree University,Lebanon,IL,62254,COMPETITIVE+,searchpage-profile.cfm_350.html
MacMurray College,Jacksonville,IL,62650,COMPETITIVE,searchpage-profile.cfm_351.html
National Louis University,Chicago,IL,60603,LESS COMPETITIVE,searchpage-profile.cfm_353.html
Millikin University,Decatur,IL,62522-2084,COMPETITIVE,searchpage-profile.cfm_354.html
Monmouth College,Monmouth,IL,61462,COMPETITIVE,searchpage-profile.cfm_355.html
North Central College,Naperville,IL,60540,VERY COMPETITIVE,searchpage-profile.cfm_356.html
Northern Illinois University,DeKalb,IL,60115,COMPETITIVE,searchpage-profile.cfm_357.html
Northeastern Illinois University,Chicago,IL,60625,LESS COMPETITIVE,searchpage-profile.cfm_358.html
North Park University,Chicago,IL,60625,COMPETITIVE,searchpage-profile.cfm_359.html
Quincy University,Quincy,IL,62301,COMPETITIVE,searchpage-profile.cfm_360.html
Principia College,Elsah,IL,62028,COMPETITIVE+,searchpage-profile.cfm_361.html
Olivet Nazarene University,Bourbonnais,IL,60914,COMPETITIVE,searchpage-profile.cfm_362.html
Rockford University,Rockford,IL,61108,COMPETITIVE,searchpage-profile.cfm_363.html
Roosevelt University,Chicago,IL,60605,VERY COMPETITIVE,searchpage-profile.cfm_364.html
Northwestern University,Evanston,IL,60208,MOST COMPETITIVE,searchpage-profile.cfm_365.html
Saint Xavier University,Chicago,IL,60655,COMPETITIVE,searchpage-profile.cfm_366.html
School of the Art Institute of Chicago,Chicago,IL,60603,SPECIAL,searchpage-profile.cfm_367.html
Southern Illinois University Carbondale,Carbondale,IL,62901,COMPETITIVE,searchpage-profile.cfm_369.html
Southern Illinois University Edwardsville,Edwardsville,IL,62026,COMPETITIVE,searchpage-profile.cfm_370.html
Trinity College of Nursing and Health Sciences,Rock Island,IL,61201,SPECIAL,searchpage-profile.cfm_371.html
Trinity Christian College,Palos Heights,IL,60463,COMPETITIVE,searchpage-profile.cfm_372.html
Shimer College,Chicago,IL,60616,VERY COMPETITIVE+,searchpage-profile.cfm_373.html
University of Chicago,Chicago,IL,60637,MOST COMPETITIVE,searchpage-profile.cfm_375.html
University of Illinois at Chicago,Chicago,IL,60607,VERY COMPETITIVE,searchpage-profile.cfm_376.html
VanderCook College of Music,Chicago,IL,60616,NONCOMPETITIVE,searchpage-profile.cfm_377.html
University of Illinois at Urbana-Champaign,Urbana,IL,61801,HIGHLY COMPETITIVE,searchpage-profile.cfm_378.html
University of St. Francis,Joliet,IL,60435,COMPETITIVE,searchpage-profile.cfm_379.html
Trinity International University,Deerfield,IL,60015,VERY COMPETITIVE,searchpage-profile.cfm_380.html
Western Illinois University,Macomb,IL,61455,COMPETITIVE,searchpage-profile.cfm_382.html
Wheaton College,Wheaton,IL,60187,MOST COMPETITIVE,searchpage-profile.cfm_383.html
Ball State University,Muncie,IN,47306,COMPETITIVE,searchpage-profile.cfm_384.html
Bethel College,Mishawaka,IN,46545,COMPETITIVE,searchpage-profile.cfm_385.html
Butler University,Indianapolis,IN,46208,VERY COMPETITIVE,searchpage-profile.cfm_386.html
Anderson University,Anderson,IN,46012,COMPETITIVE,searchpage-profile.cfm_387.html
Earlham College,Richmond,IN,47374,HIGHLY COMPETITIVE,searchpage-profile.cfm_388.html
Franklin College,Franklin,IN,46131,COMPETITIVE,searchpage-profile.cfm_389.html
Calumet College of St. Joseph,Whiting,IN,46394,COMPETITIVE,searchpage-profile.cfm_390.html
DePauw University,Greencastle,IN,46135,HIGHLY COMPETITIVE+,searchpage-profile.cfm_391.html
Grace College and Seminary,Winona Lake,IN,46590,COMPETITIVE,searchpage-profile.cfm_392.html
Goshen College,Goshen,IN,46526,COMPETITIVE,searchpage-profile.cfm_393.html
Hanover College,Hanover,IN,47243,COMPETITIVE+,searchpage-profile.cfm_394.html
Huntington University,Huntington,IN,46750,COMPETITIVE,searchpage-profile.cfm_395.html
Indiana Institute of Technology,Fort Wayne,IN,46803,LESS COMPETITIVE,searchpage-profile.cfm_396.html
Indiana University Bloomington,Bloomington,IN,47405,VERY COMPETITIVE,searchpage-profile.cfm_397.html
Indiana State University,Terre Haute,IN,47809,LESS COMPETITIVE,searchpage-profile.cfm_399.html
Indiana University South Bend,South Bend,IN,46615,COMPETITIVE,searchpage-profile.cfm_400.html
Indiana University Kokomo,Kokomo,IN,46902,COMPETITIVE,searchpage-profile.cfm_401.html
Indiana University East,Richmond,IN,47374,COMPETITIVE,searchpage-profile.cfm_402.html
Indiana University Northwest,Gary,IN,46408,COMPETITIVE,searchpage-profile.cfm_403.html
Indiana University Southeast,New Albany,IN,47150,LESS COMPETITIVE,searchpage-profile.cfm_404.html
Indiana University-Purdue University Fort Wayne,Fort Wayne,IN,46805,COMPETITIVE,searchpage-profile.cfm_405.html
Manchester University,North Manchester,IN,46962,COMPETITIVE,searchpage-profile.cfm_406.html
Indiana University-Purdue University Indianapolis,Indianapolis,IN,46202,COMPETITIVE,searchpage-profile.cfm_407.html
Indiana Wesleyan University,Marion,IN,46953,COMPETITIVE,searchpage-profile.cfm_408.html
Marian University,Indianapolis,IN,46222,COMPETITIVE,searchpage-profile.cfm_409.html
Oakland City University,Oakland City,IN,47660,NON COMPETITIVE,searchpage-profile.cfm_410.html
Martin University,Indianapolis,IN,46218,LESS COMPETITIVE,searchpage-profile.cfm_411.html
Purdue University/West Lafayette,West Lafayette,IN,47907,MOST COMPETITIVE,searchpage-profile.cfm_412.html
Purdue University/Northwest,Hammond,IN,46323,COMPETITIVE,searchpage-profile.cfm_414.html
Saint Joseph's College,Rensselaer,IN,47978,COMPETITIVE,searchpage-profile.cfm_415.html
Rose-Hulman Institute of Technology,Terre Haute,IN,47803,MOST COMPETITIVE,searchpage-profile.cfm_416.html
Saint Mary-of-the-Woods College,St Mary of the Woods,IN,47876,LESS COMPETITIVE,searchpage-profile.cfm_417.html
Saint Mary's College,Notre Dame,IN,46556,COMPETITIVE,searchpage-profile.cfm_418.html
University of Evansville,Evansville,IN,47722,VERY COMPETITIVE+,searchpage-profile.cfm_419.html
Trine University,Angola,IN,46703,COMPETITIVE,searchpage-profile.cfm_420.html
Taylor University,Upland,IN,46989,COMPETITIVE+,searchpage-profile.cfm_421.html
University of Notre Dame,Notre Dame,IN,46556,MOST COMPETITIVE,searchpage-profile.cfm_422.html
University of Indianapolis,Indianapolis,IN,46227,COMPETITIVE,searchpage-profile.cfm_423.html
University of Southern Indiana,Evansville,IN,47712,COMPETITIVE,searchpage-profile.cfm_424.html
Valparaiso University,Valparaiso,IN,46383,COMPETITIVE+,searchpage-profile.cfm_425.html
Wabash College,Crawfordsville,IN,47933,VERY COMPETITIVE,searchpage-profile.cfm_426.html
University of Saint Francis,Fort Wayne,IN,46808,COMPETITIVE,searchpage-profile.cfm_427.html
Allen College,Waterloo,IA,50703,NONCOMPETITIVE,searchpage-profile.cfm_428.html
Buena Vista University,Storm Lake,IA,50588,COMPETITIVE,searchpage-profile.cfm_429.html
Briar Cliff University,Sioux City,IA,51104,COMPETITIVE,searchpage-profile.cfm_430.html
Central College,Pella,IA,50219,COMPETITIVE,searchpage-profile.cfm_431.html
Clarke University,Dubuque,IA,52001,COMPETITIVE,searchpage-profile.cfm_432.html
Coe College,Cedar Rapids,IA,52402,VERY COMPETITIVE,searchpage-profile.cfm_433.html
Cornell College,Mount Vernon,IA,52314,VERY COMPETITIVE,searchpage-profile.cfm_434.html
Drake University,Des Moines,IA,50311,HIGHLY COMPETITIVE,searchpage-profile.cfm_435.html
Dordt College,Sioux Center,IA,51250,COMPETITIVE+,searchpage-profile.cfm_436.html
Graceland University,Lamoni,IA,50140,COMPETITIVE,searchpage-profile.cfm_438.html
Grinnell College,Grinnell,IA,50112,MOST COMPETITIVE,searchpage-profile.cfm_439.html
Grand View University,Des Moines,IA,50316,COMPETITIVE,searchpage-profile.cfm_440.html
Iowa State University,Ames,IA,50011,COMPETITIVE,searchpage-profile.cfm_442.html
Iowa Wesleyan University,Mount Pleasant,IA,52641,COMPETITIVE,searchpage-profile.cfm_443.html
Loras College,Dubuque,IA,52004,COMPETITIVE,searchpage-profile.cfm_444.html
Luther College,Decorah,IA,52101,COMPETITIVE+,searchpage-profile.cfm_445.html
Maharishi University of Management,Fairfield,IA,52557,VERY COMPETITIVE,searchpage-profile.cfm_446.html
Mercy College of Health Sciences,Des Moines,IA,50309,COMPETITIVE,searchpage-profile.cfm_448.html
Morningside College,Sioux City,IA,51106,COMPETITIVE,searchpage-profile.cfm_449.html
Mount Mercy University,Cedar Rapids,IA,52402,COMPETITIVE,searchpage-profile.cfm_450.html
Northwestern College of Iowa,Orange City,IA,51041,COMPETITIVE+,searchpage-profile.cfm_451.html
Ashford University,San Diego,CA,92123,COMPETITIVE,searchpage-profile.cfm_452.html
St. Ambrose University,Davenport,IA,52803,COMPETITIVE,searchpage-profile.cfm_453.html
Simpson College,Indianola,IA,50125,VERY COMPETITIVE,searchpage-profile.cfm_454.html
University of Dubuque,Dubuque,IA,52001,COMPETITIVE,searchpage-profile.cfm_455.html
University of Iowa,Iowa City,IA,52242,VERY COMPETITIVE+,searchpage-profile.cfm_456.html
University of Northern Iowa,Cedar Falls,IA,50614,COMPETITIVE,searchpage-profile.cfm_457.html
Upper Iowa University,Fayette,IA,52142,NONCOMPETITIVE,searchpage-profile.cfm_458.html
Wartburg College,Waverly,IA,50677,COMPETITIVE,searchpage-profile.cfm_459.html
Baker University,Baldwin City,KS,66006,COMPETITIVE+,searchpage-profile.cfm_460.html
William Penn University,Oskaloosa,IA,52577,COMPETITIVE,searchpage-profile.cfm_461.html
Benedictine College,Atchison,KS,66002,VERY COMPETITIVE,searchpage-profile.cfm_462.html
Bethany College,Lindsborg,KS,67456,NONCOMPETITIVE,searchpage-profile.cfm_463.html
Bethel College,North Newton,KS,67117,COMPETITIVE,searchpage-profile.cfm_464.html
Fort Hays State University,Hays,KS,67601,COMPETITIVE,searchpage-profile.cfm_465.html
Emporia State University,Emporia,KS,66801,COMPETITIVE,searchpage-profile.cfm_466.html
Kansas State University,Manhattan,KS,66506,VERY COMPETITIVE,searchpage-profile.cfm_467.html
Friends University,Wichita,KS,67213,COMPETITIVE,searchpage-profile.cfm_468.html
Kansas Wesleyan University,Salina,KS,67401,COMPETITIVE,searchpage-profile.cfm_469.html
McPherson College,McPherson,KS,67460,COMPETITIVE,searchpage-profile.cfm_470.html
MidAmerica Nazarene University,Olathe,KS,66062,COMPETITIVE,searchpage-profile.cfm_471.html
Newman University,Wichita,KS,67213,COMPETITIVE,searchpage-profile.cfm_472.html
Ottawa University,Ottawa,KS,66067,VERY COMPETITIVE,searchpage-profile.cfm_473.html
Pittsburg State University,Pittsburg,KS,66762,NONCOMPETITIVE,searchpage-profile.cfm_474.html
University of Saint Mary,Leavenworth,KS,66048,COMPETITIVE,searchpage-profile.cfm_475.html
Southwestern College,Winfield,KS,67156,COMPETITIVE,searchpage-profile.cfm_476.html
Sterling College,Sterling,KS,67579,COMPETITIVE,searchpage-profile.cfm_477.html
Tabor College,Hillsboro,KS,67063,COMPETITIVE,searchpage-profile.cfm_478.html
University of Kansas,Lawrence,KS,66045,COMPETITIVE+,searchpage-profile.cfm_479.html
Washburn University,Topeka,KS,66621,COMPETITIVE,searchpage-profile.cfm_480.html
Wichita State University,Wichita,KS,67260,COMPETITIVE,searchpage-profile.cfm_481.html
Alice Lloyd College,Pippa Passes,KY,41844,COMPETITIVE,searchpage-profile.cfm_482.html
Asbury University,Wilmore,KY,40390,COMPETITIVE+,searchpage-profile.cfm_483.html
Bellarmine University,Louisville,KY,40205,COMPETITIVE,searchpage-profile.cfm_484.html
Berea College,Berea,KY,40404,COMPETITIVE,searchpage-profile.cfm_485.html
Brescia University,Owensboro,KY,42301,VERY COMPETITIVE+,searchpage-profile.cfm_486.html
Campbellsville University,Campbellsville,KY,42718,COMPETITIVE,searchpage-profile.cfm_487.html
Centre College,Danville,KY,40422,HIGHLY COMPETITIVE,searchpage-profile.cfm_488.html
University of the Cumberlands,Williamsburg,KY,40769,COMPETITIVE,searchpage-profile.cfm_489.html
Eastern Kentucky University,Richmond,KY,40475,COMPETITIVE,searchpage-profile.cfm_490.html
Georgetown College,Georgetown,KY,40324,COMPETITIVE,searchpage-profile.cfm_491.html
Kentucky Christian University,Grayson,KY,41143,LESS COMPETITIVE,searchpage-profile.cfm_492.html
Kentucky State University,Frankfort,KY,40601,LESS COMPETITIVE,searchpage-profile.cfm_493.html
Kentucky Wesleyan College,Owensboro,KY,42301,COMPETITIVE,searchpage-profile.cfm_494.html
Lindsey Wilson College,Columbia,KY,42728,COMPETITIVE,searchpage-profile.cfm_495.html
Midway University,Midway,KY,40347,LESS COMPETITIVE,searchpage-profile.cfm_496.html
Morehead State University,Morehead,KY,40351,COMPETITIVE,searchpage-profile.cfm_497.html
Murray State University,Murray,KY,42071,COMPETITIVE,searchpage-profile.cfm_498.html
Northern Kentucky University,Highland Heights,KY,41099,COMPETITIVE,searchpage-profile.cfm_499.html
University of Pikeville,Pikeville,KY,41501,NONCOMPETITIVE,searchpage-profile.cfm_500.html
Spalding University,Louisville,KY,40203,sCOMPETITIVE,searchpage-profile.cfm_501.html
Thomas More College,Crestview Hills,KY,41017,COMPETITIVE,searchpage-profile.cfm_502.html
Transylvania University,Lexington,KY,40508,VERY COMPETITIVE+,searchpage-profile.cfm_503.html
Union College,Barbourville,KY,40906,COMPETITIVE,searchpage-profile.cfm_504.html
University of Kentucky,Lexington,KY,40506,COMPETITIVE,searchpage-profile.cfm_505.html
University of Louisville,Louisville,KY,40292,COMPETITIVE,searchpage-profile.cfm_506.html
Western Kentucky University,Bowling Green,KY,42101,COMPETITIVE,searchpage-profile.cfm_507.html
Centenary College of Louisiana,Shreveport,LA,71104,COMPETITIVE+,searchpage-profile.cfm_508.html
Dillard University,New Orleans,LA,70122,VERY COMPETITIVE,searchpage-profile.cfm_509.html
Grambling State University,Grambling,LA,71245,COMPETITIVE,searchpage-profile.cfm_510.html
Louisiana College,Pineville,LA,71359,COMPETITIVE,searchpage-profile.cfm_511.html
Louisiana State University and A&M College,Baton Rouge,LA,70803,VERY COMPETITIVE,searchpage-profile.cfm_513.html
Louisiana State University in Shreveport,Shreveport,LA,71115,COMPETITIVE,searchpage-profile.cfm_514.html
Louisiana Tech University,Ruston,LA,71272,VERY COMPETITIVE,searchpage-profile.cfm_515.html
Loyola University New Orleans,New Orleans,LA,70118,VERY COMPETITIVE+,searchpage-profile.cfm_516.html
McNeese State University,Lake Charles,LA,70609,COMPETITIVE,searchpage-profile.cfm_517.html
Nicholls State University,Thibodaux,LA,70310,COMPETITIVE,searchpage-profile.cfm_518.html
Northwestern State University of Louisiana,Natchitoches,LA,71497,COMPETITIVE,searchpage-profile.cfm_519.html
University of Holy Cross,New Orleans,LA,70131,COMPETITIVE,searchpage-profile.cfm_520.html
Southeastern Louisiana University,Hammond,LA,70402,COMPETITIVE,searchpage-profile.cfm_521.html
Southern University and A&M College,Baton Rouge,LA,70813,LESS COMPETITIVE+,searchpage-profile.cfm_523.html
Southern University at New Orleans,New Orleans,LA,70126,LESS COMPETITIVE,searchpage-profile.cfm_524.html
Tulane University,New Orleans,LA,70118,HIGHLY COMPETITIVE+,searchpage-profile.cfm_525.html
University of Louisiana at Lafayette,Lafayette,LA,70504,COMPETITIVE,searchpage-profile.cfm_526.html
University of Louisiana at Monroe,Monroe,LA,71209,COMPETITIVE,searchpage-profile.cfm_527.html
University of New Orleans,New Orleans,LA,70148,COMPETITIVE,searchpage-profile.cfm_528.html
Xavier University of Louisiana,New Orleans,LA,70125,COMPETITIVE+,searchpage-profile.cfm_529.html
Bates College,Lewiston,ME,04240,MOST COMPETITIVE,searchpage-profile.cfm_530.html
Bowdoin College,Brunswick,ME,04011,MOST COMPETITIVE,searchpage-profile.cfm_531.html
Colby College,Waterville,ME,04901,MOST COMPETITIVE,searchpage-profile.cfm_532.html
College of the Atlantic,Bar Harbor,ME,04609,HIGHLY COMPETITIVE+,searchpage-profile.cfm_533.html
Husson University,Bangor,ME,04401,LESS COMPETITIVE,searchpage-profile.cfm_534.html
Maine College of Art,Portland,ME,04101,SPECIAL,searchpage-profile.cfm_535.html
Maine Maritime Academy,Castine,ME,04420,COMPETITIVE,searchpage-profile.cfm_536.html
Saint Joseph's College of Maine,Standish,ME,04084,COMPETITIVE,searchpage-profile.cfm_537.html
Thomas College,Waterville,ME,04901,LESS COMPETITIVE,searchpage-profile.cfm_538.html
Unity College,Unity,ME,04988,COMPETITIVE,searchpage-profile.cfm_539.html
University of Maine,Orono,ME,04469,COMPETITIVE,searchpage-profile.cfm_541.html
University of Maine at Augusta,Augusta,ME,04430,COMPETITIVE,searchpage-profile.cfm_542.html
University of Maine at Farmington,Farmington,ME,04938,COMPETITIVE,searchpage-profile.cfm_543.html
University of Maine at Fort Kent,Fort Kent,ME,04743,LESS COMPETITIVE,searchpage-profile.cfm_544.html
University of Maine at Machias,Machias,ME,04654,COMPETITIVE,searchpage-profile.cfm_545.html
University of Maine at Presque Isle,Presque Isle,ME,04769,COMPETITIVE,searchpage-profile.cfm_546.html
University of New England,Biddeford,ME,04005,COMPETITIVE,searchpage-profile.cfm_547.html
University of Southern Maine,Gorham,ME,04038,COMPETITIVE,searchpage-profile.cfm_548.html
Bowie State University,Bowie,MD,20715,LESS COMPETITIVE,searchpage-profile.cfm_550.html
Capitol Technology University,Laurel,MD,20708,COMPETITIVE,searchpage-profile.cfm_551.html
Notre Dame of Maryland University,Baltimore,MD,21210,VERY COMPETITIVE,searchpage-profile.cfm_552.html
Washington Adventist University,Takoma Park,MD,20912,LESS COMPETITIVE,searchpage-profile.cfm_553.html
Coppin State University,Baltimore,MD,21216,VERY COMPETITIVE,searchpage-profile.cfm_554.html
Frostburg State University,Frostburg,MD,21532,LESS COMPETITIVE,searchpage-profile.cfm_555.html
Goucher College,Baltimore,MD,21204,VERY COMPETITIVE,searchpage-profile.cfm_556.html
Hood College,Frederick,MD,21701,COMPETITIVE,searchpage-profile.cfm_557.html
Johns Hopkins University,Baltimore,MD,21218,MOST COMPETITIVE,searchpage-profile.cfm_558.html
Loyola University Maryland,Baltimore,MD,21210,VERY COMPETITIVE,searchpage-profile.cfm_559.html
Maryland Institute College of Art,Baltimore,MD,21217,SPECIAL,searchpage-profile.cfm_560.html
Morgan State University,Baltimore,MD,21251,LESS COMPETITIVE,searchpage-profile.cfm_561.html
Mount St. Mary's University,Emmitsburg,MD,21727,COMPETITIVE,searchpage-profile.cfm_562.html
St. John's College-Annapolis,Annapolis,MD,21401,MOST COMPETITIVE,searchpage-profile.cfm_563.html
St. Mary's College of Maryland,St. Marys City,MD,20686,VERY COMPETITIVE,searchpage-profile.cfm_564.html
Salisbury University,Salisbury,MD,21801,VERY COMPETITIVE,searchpage-profile.cfm_565.html
Towson University,Towson,MD,21252,VERY COMPETITIVE,searchpage-profile.cfm_567.html
United States Naval Academy,Annapolis,MD,21402,MOST COMPETITIVE,searchpage-profile.cfm_568.html
University of Maryland/Baltimore County,Baltimore,MD,21250,VERY COMPETITIVE,searchpage-profile.cfm_569.html
University of Maryland/College Park,College Park,MD,20742,HIGHLY COMPETITIVE,searchpage-profile.cfm_570.html
University of Maryland/Eastern Shore,Princess Anne,MD,21853,COMPETITIVE,searchpage-profile.cfm_571.html
University of Maryland/University College,Adelphi,MD,20783,LESS COMPETITIVE,searchpage-profile.cfm_572.html
Stevenson University,Stevenson,MD,21153,COMPETITIVE,searchpage-profile.cfm_574.html
Washington College,Chestertown,MD,21620,VERY COMPETITIVE,searchpage-profile.cfm_575.html
McDaniel College,Westminster,MD,21157,VERY COMPETITIVE,searchpage-profile.cfm_576.html
American International College,Springfield,MA,01109,LESS COMPETITIVE,searchpage-profile.cfm_577.html
Amherst College,Amherst,MA,01002,HIGHLY COMPETITIVE+,searchpage-profile.cfm_578.html
Anna Maria College,Paxton,MA,01612,COMPETITIVE,searchpage-profile.cfm_580.html
College of Art and Design at Lesley University,Boston,MA,02215,SPECIAL,searchpage-profile.cfm_581.html
Assumption College,Worcester,MA,01609,COMPETITIVE+,searchpage-profile.cfm_582.html
Atlantic Union College,South Lancaster,MA,01561,COMPETITIVE,searchpage-profile.cfm_583.html
Babson College,Babson Park,MA,02457,HIGHLY COMPETITIVE,searchpage-profile.cfm_584.html
Bay Path University,Longmeadow,MA,01106,COMPETITIVE,searchpage-profile.cfm_585.html
Becker College,Worcester,MA,01609,COMPETITIVE,searchpage-profile.cfm_586.html
Bentley University,Waltham,MA,02452,HIGHLY COMPETITIVE,searchpage-profile.cfm_587.html
Berklee College of Music,Boston,MA,02215,SPECIAL,searchpage-profile.cfm_588.html
Boston Architectural College,Boston,MA,02115,NONCOMPETITIVE,searchpage-profile.cfm_589.html
Boston College,Chestnut Hill,MA,02467,MOST COMPETITIVE,searchpage-profile.cfm_590.html
The Boston Conservatory at Berklee,Boston,MA,02215,COMPETITIVE+,searchpage-profile.cfm_591.html
Boston University,Boston,MA,02215,MOST COMPETITIVE,searchpage-profile.cfm_592.html
Brandeis University,Waltham,MA,02454,MOST COMPETITIVE,searchpage-profile.cfm_593.html
Bridgewater State University,Bridgewater,MA,02325,COMPETITIVE,searchpage-profile.cfm_594.html
Cambridge College,Cambridge,MA,02138,NONCOMPETITIVE,searchpage-profile.cfm_595.html
Clark University,Worcester,MA,01610,HIGHLY COMPETITIVE+,searchpage-profile.cfm_596.html
Elms College,Chicopee,MA,01013,VERY COMPETITIVE,searchpage-profile.cfm_597.html
College of the Holy Cross,Worcester,MA,01610,MOST COMPETITIVE,searchpage-profile.cfm_598.html
Curry College,Milton,MA,02186,COMPETITIVE,searchpage-profile.cfm_599.html
Eastern Nazarene College,Quincy,MA,02170,COMPETITIVE,searchpage-profile.cfm_600.html
Emerson College,Boston,MA,02116,HIGHLY COMPETITIVE,searchpage-profile.cfm_601.html
Emmanuel College,Boston,MA,02115,COMPETITIVE+,searchpage-profile.cfm_602.html
Endicott College,Beverly,MA,01915,VERY COMPETITIVE+,searchpage-profile.cfm_603.html
Fitchburg State University,Fitchburg,MA,01420,COMPETITIVE,searchpage-profile.cfm_605.html
Framingham State University,Framingham,MA,01701,COMPETITIVE,searchpage-profile.cfm_606.html
Benjamin Franklin Institute of Technology,Boston,MA,02116,COMPETITIVE,searchpage-profile.cfm_607.html
Gordon College,Wenham,MA,01984,COMPETITIVE+,searchpage-profile.cfm_608.html
Hampshire College,Amherst,MA,01002,MOST COMPETITIVE,searchpage-profile.cfm_609.html
Harvard College/Harvard University,Cambridge,MA,02138,MOST COMPETITIVE,searchpage-profile.cfm_610.html
Hellenic College/Holy Cross Greek Orthodox School of Theology,Brookline,MA,02445,COMPETITIVE,searchpage-profile.cfm_611.html
Lasell College,Newton,MA,02466,COMPETITIVE,searchpage-profile.cfm_612.html
Lesley University,Cambridge,MA,02138,COMPETITIVE,searchpage-profile.cfm_613.html
Massachusetts College of Art and Design,Boston,MA,02115,SPECIAL,searchpage-profile.cfm_615.html
Massachusetts College of Liberal Arts,North Adams,MA,01247,COMPETITIVE,searchpage-profile.cfm_616.html
MCPHS University,Boston,MA,02115,SPECIAL,searchpage-profile.cfm_617.html
Massachusetts Institute of Technology,Cambridge,MA,02139,MOST COMPETITIVE,searchpage-profile.cfm_618.html
Massachusetts Maritime Academy,Buzzards Bay,MA,02532,COMPETITIVE,searchpage-profile.cfm_619.html
Merrimack College,North Andover,MA,01845,COMPETITIVE,searchpage-profile.cfm_620.html
Montserrat College of Art,Beverly,MA,01915,SPECIAL,searchpage-profile.cfm_621.html
Mount Holyoke College,South Hadley,MA,01075,MOST COMPETITIVE,searchpage-profile.cfm_622.html
New England Conservatory of Music,Boston,MA,02115,SPECIAL,searchpage-profile.cfm_624.html
Newbury College,Brookline,MA,02445,COMPETITIVE,searchpage-profile.cfm_625.html
Mount Ida College,Newton,MA,02459,COMPETITIVE,searchpage-profile.cfm_626.html
Nichols College,Dudley,MA,01571,LESS COMPETITIVE,searchpage-profile.cfm_627.html
Northeastern University,Boston,MA,02115,MOST COMPETITIVE,searchpage-profile.cfm_628.html
Pine Manor College,Chestnut Hill,MA,02467,LESS COMPETITIVE,searchpage-profile.cfm_629.html
Regis College,Weston,MA,02493,COMPETITIVE,searchpage-profile.cfm_630.html
Salem State University,Salem,MA,01970,LESS COMPETITIVE,searchpage-profile.cfm_631.html
Simmons College,Boston,MA,02115,VERY COMPETITIVE,searchpage-profile.cfm_632.html
Bard College at Simon's Rock,Great Barrington,MA,01230,MOST COMPETITIVE,searchpage-profile.cfm_633.html
Smith College,Northampton,MA,01063,MOST COMPETITIVE,searchpage-profile.cfm_634.html
Springfield College,Springfield,MA,01109,COMPETITIVE,searchpage-profile.cfm_635.html
Stonehill College,Easton,MA,02357,COMPETITIVE+,searchpage-profile.cfm_636.html
Suffolk University,Boston,MA,02108,COMPETITIVE,searchpage-profile.cfm_637.html
Tufts University,Medford,MA,02155,MOST COMPETITIVE,searchpage-profile.cfm_638.html
University of Massachusetts Amherst,Amherst,MA,01003,VERY COMPETITIVE+,searchpage-profile.cfm_639.html
University of Massachusetts Boston,Boston,MA,02125,COMPETITIVE,searchpage-profile.cfm_640.html
University of Massachusetts Dartmouth,North Dartmouth,MA,02747,COMPETITIVE,searchpage-profile.cfm_641.html
University of Massachusetts Lowell,Lowell,MA,01854,COMPETITIVE,searchpage-profile.cfm_642.html
Wellesley College,Wellesley,MA,02481,MOST COMPETITIVE,searchpage-profile.cfm_643.html
Wentworth Institute of Technology,Boston,MA,02115,COMPETITIVE,searchpage-profile.cfm_644.html
Western New England University,Springfield,MA,01119,COMPETITIVE,searchpage-profile.cfm_645.html
Westfield State University,Westfield,MA,01086,COMPETITIVE,searchpage-profile.cfm_646.html
Wheaton College,Norton,MA,02766,VERY COMPETITIVE,searchpage-profile.cfm_647.html
Wheelock College,Boston,MA,02215,COMPETITIVE,searchpage-profile.cfm_648.html
Williams College,Williamstown,MA,01267,MOST COMPETITIVE,searchpage-profile.cfm_649.html
Worcester Polytechnic Institute,Worcester,MA,01609,MOST COMPETITIVE,searchpage-profile.cfm_650.html
Worcester State University,Worcester,MA,01602,COMPETITIVE,searchpage-profile.cfm_651.html
Adrian College,Adrian,MI,49221,COMPETITIVE,searchpage-profile.cfm_652.html
Albion College,Albion,MI,49224,COMPETITIVE,searchpage-profile.cfm_653.html
Alma College,Alma,MI,48801-1599,COMPETITIVE,searchpage-profile.cfm_654.html
Andrews University,Berrien Springs,MI,49104,COMPETITIVE+,searchpage-profile.cfm_655.html
Aquinas College - Michigan,Grand Rapids,MI,49506,HIGHLY COMPETITIVE,searchpage-profile.cfm_656.html
Baker College of Flint,Flint,MI,48507,NONCOMPETITIVE,searchpage-profile.cfm_657.html
Calvin College,Grand Rapids,MI,49546,VERY COMPETITIVE+,searchpage-profile.cfm_658.html
College for Creative Studies,Detroit,MI,48202,SPECIAL,searchpage-profile.cfm_659.html
Central Michigan University,Mount Pleasant,MI,48859,COMPETITIVE,searchpage-profile.cfm_660.html
"Concordia University, Ann Arbor",Ann Arbor,MI,48105,VERY COMPETITIVE,searchpage-profile.cfm_662.html
Cornerstone University,Grand Rapids,MI,49525,COMPETITIVE,searchpage-profile.cfm_663.html
Davenport University,Grand Rapids,MI,49512,LESS COMPETITIVE,searchpage-profile.cfm_664.html
Eastern Michigan University,Ypsilanti,MI,48197,COMPETITIVE,searchpage-profile.cfm_668.html
Ferris State University,Big Rapids,MI,49307,COMPETITIVE,searchpage-profile.cfm_669.html
Grand Valley State University,Allendale,MI,49401,COMPETITIVE+,searchpage-profile.cfm_670.html
Hillsdale College,Hillsdale,MI,49242,MOST COMPETITIVE,searchpage-profile.cfm_671.html
Hope College,Holland,MI,49422,VERY COMPETITIVE,searchpage-profile.cfm_672.html
Kalamazoo College,Kalamazoo,MI,49006,HIGHLY COMPETITIVE+,searchpage-profile.cfm_673.html
Kettering University,Flint,MI,48504,HIGHLY COMPETITIVE,searchpage-profile.cfm_675.html
Lake Superior State University,Sault Sainte Marie,MI,49783,COMPETITIVE,searchpage-profile.cfm_676.html
Lawrence Technological University,Southfield,MI,48075,VERY COMPETITIVE,searchpage-profile.cfm_677.html
Madonna University,Livonia,MI,48150,COMPETITIVE,searchpage-profile.cfm_678.html
Marygrove College,Detroit,MI,48221,NONCOMPETITIVE,searchpage-profile.cfm_679.html
Michigan State University,East Lansing,MI,48824,VERY COMPETITIVE+,searchpage-profile.cfm_680.html
Michigan Technological University,Houghton,MI,49931,VERY COMPETITIVE+,searchpage-profile.cfm_681.html
Northern Michigan University,Marquette,MI,49855,COMPETITIVE,searchpage-profile.cfm_682.html
Northwood University - Michigan,Midland,MI,48640,LESS COMPETITIVE,searchpage-profile.cfm_683.html
Oakland University,Rochester,MI,48309,COMPETITIVE,searchpage-profile.cfm_684.html
Olivet College,Olivet,MI,49076,LESS COMPETITIVE,searchpage-profile.cfm_685.html
Rochester College,Rochester Hills,MI,48307,LESS COMPETITIVE,searchpage-profile.cfm_686.html
Saginaw Valley State University,University Center,MI,48710,COMPETITIVE,searchpage-profile.cfm_687.html
Siena Heights University,Adrian,MI,49221,COMPETITIVE,searchpage-profile.cfm_689.html
Spring Arbor University,Spring Arbor,MI,49283,COMPETITIVE,searchpage-profile.cfm_690.html
University of Detroit Mercy,Detroit,MI,48221,COMPETITIVE+,searchpage-profile.cfm_691.html
University of Michigan/Ann Arbor,Ann Arbor,MI,48109,MOST COMPETITIVE,searchpage-profile.cfm_693.html
University of Michigan/Dearborn,Dearborn,MI,48128,VERY COMPETITIVE,searchpage-profile.cfm_694.html
University of Michigan-Flint,Flint,MI,48502,COMPETITIVE+,searchpage-profile.cfm_695.html
Wayne State University,Detroit,MI,48202,COMPETITIVE,searchpage-profile.cfm_696.html
Western Michigan University,Kalamazoo,MI,49008,COMPETITIVE,searchpage-profile.cfm_697.html
Augsburg College,Minneapolis,MN,55454,COMPETITIVE,searchpage-profile.cfm_699.html
Bemidji State University,Bemidji,MN,56601,VERY COMPETITIVE,searchpage-profile.cfm_700.html
Bethel University,St. Paul,MN,55112,VERY COMPETITIVE,searchpage-profile.cfm_701.html
Carleton College,Northfield,MN,55057,MOST COMPETITIVE,searchpage-profile.cfm_702.html
College of Saint Benedict,St. Joseph,MN,56374,COMPETITIVE,searchpage-profile.cfm_703.html
St. Catherine University,St. Paul,MN,55105,VERY COMPETITIVE,searchpage-profile.cfm_704.html
College of St. Scholastica,Duluth,MN,55811,COMPETITIVE,searchpage-profile.cfm_705.html
Concordia College - Moorhead,Moorhead,MN,56562,COMPETITIVE+,searchpage-profile.cfm_707.html
Concordia University Saint Paul,St. Paul,MN,55104,COMPETITIVE,searchpage-profile.cfm_708.html
Gustavus Adolphus College,St. Peter,MN,56082,HIGHLY COMPETITIVE,searchpage-profile.cfm_709.html
Hamline University,St. Paul,MN,55104,VERY COMPETITIVE,searchpage-profile.cfm_710.html
Macalester College,St. Paul,MN,55105,MOST COMPETITIVE,searchpage-profile.cfm_711.html
Metropolitan State University,St. Paul,MN,55106,COMPETITIVE,searchpage-profile.cfm_712.html
Minneapolis College of Art and Design,Minneapolis,MN,55404,SPECIAL,searchpage-profile.cfm_713.html
"Minnesota State University, Mankato",Mankato,MN,56001,COMPETITIVE,searchpage-profile.cfm_714.html
"Minnesota State University, Moorhead",Moorhead,MN,56563,COMPETITIVE,searchpage-profile.cfm_715.html
North Central University,Minneapolis,MN,55404,COMPETITIVE,searchpage-profile.cfm_716.html
University of Northwestern - St. Paul,St. Paul,MN,55113,COMPETITIVE,searchpage-profile.cfm_717.html
St. Cloud State University,St. Cloud,MN,56301,COMPETITIVE,searchpage-profile.cfm_718.html
Saint John's University,Collegeville,MN,56321,COMPETITIVE,searchpage-profile.cfm_719.html
Saint Mary's University of Minnesota,Winona,MN,55987,VERY COMPETITIVE,searchpage-profile.cfm_720.html
St. Olaf College,Northfield,MN,55057,HIGHLY COMPETITIVE+,searchpage-profile.cfm_721.html
Southwest Minnesota State University,Marshall,MN,56258,COMPETITIVE,searchpage-profile.cfm_722.html
University of Minnesota Crookston,Crookston,MN,56716,COMPETITIVE,searchpage-profile.cfm_724.html
University of Minnesota/Duluth,Duluth,MN,55812,COMPETITIVE+,searchpage-profile.cfm_725.html
University of Minnesota/Morris,Morris,MN,56267,VERY COMPETITIVE,searchpage-profile.cfm_726.html
University of Minnesota/Twin Cities,Minneapolis,MN,55455,HIGHLY COMPETITIVE+,searchpage-profile.cfm_727.html
University of St. Thomas,St. Paul,MN,55105,VERY COMPETITIVE+,searchpage-profile.cfm_728.html
Winona State University,Winona,MN,55987,COMPETITIVE,searchpage-profile.cfm_729.html
Alcorn State University,Lorman,MS,39096,COMPETITIVE,searchpage-profile.cfm_730.html
Belhaven University,Jackson,MS,39202,COMPETITIVE,searchpage-profile.cfm_731.html
Blue Mountain College,Blue Mountain,MS,38610,VERY COMPETITIVE,searchpage-profile.cfm_732.html
Delta State University,Cleveland,MS,38733,COMPETITIVE,searchpage-profile.cfm_733.html
Jackson State University,Jackson,MS,39217,LESS COMPETITIVE,searchpage-profile.cfm_734.html
Millsaps College,Jackson,MS,39210,COMPETITIVE+,searchpage-profile.cfm_735.html
Mississippi College,Clinton,MS,39058,COMPETITIVE,searchpage-profile.cfm_736.html
Mississippi State University,Mississippi State,MS,39762,COMPETITIVE+,searchpage-profile.cfm_737.html
Mississippi University for Women,Columbus,MS,39701,COMPETITIVE,searchpage-profile.cfm_738.html
Mississippi Valley State University,Itta Bena,MS,38941,LESS COMPETITIVE,searchpage-profile.cfm_739.html
Rust College,Holly Springs,MS,38635,COMPETITIVE,searchpage-profile.cfm_740.html
Tougaloo College,Tougaloo,MS,39174,NONCOMPETITIVE,searchpage-profile.cfm_741.html
University of Mississippi,University,MS,38677,COMPETITIVE+,searchpage-profile.cfm_742.html
University of Southern Mississippi,Hattiesburg,MS,39406,COMPETITIVE,searchpage-profile.cfm_743.html
William Carey University,Hattiesburg,MS,39401,LESS COMPETITIVE,searchpage-profile.cfm_744.html
Avila University,Kansas City,MO,64145,COMPETITIVE,searchpage-profile.cfm_745.html
Central Methodist University,Fayette,MO,65248,VERY COMPETITIVE,searchpage-profile.cfm_746.html
University of Central Missouri,Warrensburg,MO,64093,COMPETITIVE,searchpage-profile.cfm_747.html
College of the Ozarks,Point Lookout,MO,65726,COMPETITIVE,searchpage-profile.cfm_748.html
Columbia College - Missouri,Columbia,MO,65216,COMPETITIVE,searchpage-profile.cfm_749.html
Culver-Stockton College,Canton,MO,63435,COMPETITIVE,searchpage-profile.cfm_750.html
Drury University,Springfield,MO,65802,VERY COMPETITIVE,searchpage-profile.cfm_753.html
Evangel University,Springfield,MO,65802,COMPETITIVE,searchpage-profile.cfm_754.html
Fontbonne University,St. Louis,MO,63105,COMPETITIVE,searchpage-profile.cfm_755.html
Harris-Stowe State University,St. Louis,MO,63103,NONCOMPETITIVE,searchpage-profile.cfm_757.html
Kansas City Art Institute,Kansas City,MO,64111,COMPETITIVE+,searchpage-profile.cfm_758.html
Cox College,Springfield,MO,65802,NONCOMPETITIVE,searchpage-profile.cfm_759.html
Lincoln University,Jefferson City,MO,65101,NONCOMPETITIVE,searchpage-profile.cfm_760.html
Lindenwood University,St. Charles,MO,63301,COMPETITIVE,searchpage-profile.cfm_761.html
Maryville University of Saint Louis,St. Louis,MO,63141,VERY COMPETITIVE+,searchpage-profile.cfm_762.html
Missouri Baptist University,St. Louis,MO,63141,COMPETITIVE,searchpage-profile.cfm_763.html
Missouri Southern State University,Joplin,MO,64801,COMPETITIVE,searchpage-profile.cfm_764.html
Missouri Valley College,Marshall,MO,65340,COMPETITIVE,searchpage-profile.cfm_765.html
Missouri Western State University,St. Joseph,MO,64507,Not Available,searchpage-profile.cfm_766.html
Northwest Missouri State University,Maryville,MO,64468,COMPETITIVE,searchpage-profile.cfm_767.html
Park University,Parkville,MO,64152,COMPETITIVE,searchpage-profile.cfm_768.html
Research College of Nursing,Kansas City,MO,64132,SPECIAL,searchpage-profile.cfm_769.html
Rockhurst University,Kansas City,MO,64110,COMPETITIVE,searchpage-profile.cfm_770.html
Saint Louis University,St. Louis,MO,63103,HIGHLY COMPETITIVE,searchpage-profile.cfm_771.html
Southeast Missouri State University,Cape Girardeau,MO,63701,COMPETITIVE,searchpage-profile.cfm_772.html
Southwest Baptist University,Bolivar,MO,65613,LESS COMPETITIVE,searchpage-profile.cfm_773.html
Missouri State University,Springfield,MO,65897,COMPETITIVE+,searchpage-profile.cfm_774.html
Stephens College,Columbia,MO,65215,COMPETITIVE,searchpage-profile.cfm_775.html
Truman State University,Kirksville,MO,63501,HIGHLY COMPETITIVE,searchpage-profile.cfm_776.html
University of Missouri/Columbia,Columbia,MO,65211,VERY COMPETITIVE,searchpage-profile.cfm_778.html
University of Missouri-Kansas City,Kansas City,MO,64110,VERY COMPETITIVE,searchpage-profile.cfm_779.html
Missouri University of Science and Technology,Rolla,MO,65409,HIGHLY COMPETITIVE,searchpage-profile.cfm_780.html
University of Missouri-St. Louis,St. Louis,MO,63121,COMPETITIVE,searchpage-profile.cfm_781.html
Washington University in St. Louis,St. Louis,MO,63130,MOST COMPETITIVE,searchpage-profile.cfm_782.html
Webster University,St. Louis,MO,63119,COMPETITIVE,searchpage-profile.cfm_783.html
Westminster College,Fulton,MO,65251,COMPETITIVE,searchpage-profile.cfm_784.html
William Jewell College,Liberty,MO,64068,COMPETITIVE+,searchpage-profile.cfm_785.html
William Woods University,Fulton,MO,65251,COMPETITIVE,searchpage-profile.cfm_786.html
Carroll College,Helena,MT,59625,COMPETITIVE+,searchpage-profile.cfm_787.html
Montana State University,Bozeman,MT,59717,COMPETITIVE+,searchpage-profile.cfm_788.html
Montana State University-Northern,Havre,MT,59501,NONCOMPETITIVE,searchpage-profile.cfm_789.html
Montana Tech of the University of Montana,Butte,MT,59701,COMPETITIVE+,searchpage-profile.cfm_790.html
Montana State University Billings,Billings,MT,59101,COMPETITIVE,searchpage-profile.cfm_791.html
Rocky Mountain College,Billings,MT,59102,COMPETITIVE,searchpage-profile.cfm_793.html
University of Great Falls,Great Falls,MT,59405,COMPETITIVE,searchpage-profile.cfm_795.html
University of Montana,Missoula,MT,59812,COMPETITIVE,searchpage-profile.cfm_796.html
Bellevue University,Bellevue,NE,68005,NONCOMPETITIVE,searchpage-profile.cfm_797.html
Chadron State College,Chadron,NE,69337,NONCOMPETITIVE,searchpage-profile.cfm_798.html
Clarkson College,Omaha,NE,68131,COMPETITIVE,searchpage-profile.cfm_799.html
The University of Montana Western,Dillon,MT,59725,LESS COMPETITIVE,searchpage-profile.cfm_800.html
College of Saint Mary,Omaha,NE,68106,COMPETITIVE,searchpage-profile.cfm_801.html
Concordia University Nebraska,Seward,NE,68434,VERY COMPETITIVE,searchpage-profile.cfm_802.html
Creighton University,Omaha,NE,68178,VERY COMPETITIVE+,searchpage-profile.cfm_803.html
Doane University,Crete,NE,68333,VERY COMPETITIVE,searchpage-profile.cfm_805.html
Hastings College,Hastings,NE,68901,COMPETITIVE+,searchpage-profile.cfm_806.html
Midland University,Fremont,NE,68025,Not Available,searchpage-profile.cfm_807.html
Nebraska Methodist College,Omaha,NE,68114,SPECIAL,searchpage-profile.cfm_808.html
Nebraska Wesleyan University,Lincoln,NE,68504,COMPETITIVE+,searchpage-profile.cfm_809.html
Peru State College,Peru,NE,68421,NONCOMPETITIVE,searchpage-profile.cfm_810.html
Union College,Lincoln,NE,68506,COMPETITIVE,searchpage-profile.cfm_811.html
University of Nebraska - Kearney,Kearney,NE,68849,LESS COMPETITIVE,searchpage-profile.cfm_813.html
University of Nebraska - Lincoln,Lincoln,NE,68588,VERY COMPETITIVE,searchpage-profile.cfm_814.html
University of Nebraska - Omaha,Omaha,NE,68182,COMPETITIVE,searchpage-profile.cfm_815.html
Wayne State College,Wayne,NE,68787,COMPETITIVE,searchpage-profile.cfm_816.html
York College,York,NE,68467,COMPETITIVE,searchpage-profile.cfm_817.html
Sierra Nevada College,Incline Village,NV,89451,COMPETITIVE,searchpage-profile.cfm_818.html
"University of Nevada, Las Vegas",Las Vegas,NV,89154,COMPETITIVE,searchpage-profile.cfm_820.html
University of Nevada/Reno,Reno,NV,89557,COMPETITIVE,searchpage-profile.cfm_821.html
Colby-Sawyer College,New London,NH,03257,COMPETITIVE,searchpage-profile.cfm_822.html
Granite State College,Concord,NH,03301,SPECIAL,searchpage-profile.cfm_823.html
Daniel Webster College,Nashua,NH,03063,COMPETITIVE,searchpage-profile.cfm_824.html
Dartmouth College,Hanover,NH,03755,MOST COMPETITIVE,searchpage-profile.cfm_825.html
Franklin Pierce University,Rindge,NH,03461,COMPETITIVE,searchpage-profile.cfm_826.html
Keene State College,Keene,NH,03435,LESS COMPETITIVE,searchpage-profile.cfm_828.html
New England College,Henniker,NH,03242,COMPETITIVE,searchpage-profile.cfm_829.html
Southern New Hampshire University,Manchester,NH,03106,COMPETITIVE,searchpage-profile.cfm_830.html
Plymouth State University,Plymouth,NH,03264,LESS COMPETITIVE,searchpage-profile.cfm_832.html
Rivier University,Nashua,NH,03060,VERY COMPETITIVE,searchpage-profile.cfm_833.html
Saint Anselm College,Manchester,NH,03102,COMPETITIVE+,searchpage-profile.cfm_834.html
Thomas More College of Liberal Arts,Merrimack,NH,03054,COMPETITIVE,searchpage-profile.cfm_835.html
University of New Hampshire,Durham,NH,03824,VERY COMPETITIVE,searchpage-profile.cfm_836.html
Bloomfield College,Bloomfield,NJ,07003,LESS COMPETITIVE,searchpage-profile.cfm_838.html
Caldwell University,Caldwell,NJ,07006,NONCOMPETITIVE,searchpage-profile.cfm_839.html
Centenary College,Hackettstown,NJ,07840,COMPETITIVE,searchpage-profile.cfm_840.html
The College of New Jersey,Ewing,NJ,08628,HIGHLY COMPETITIVE,searchpage-profile.cfm_841.html
College of Saint Elizabeth,Morristown,NJ,07960,LESS COMPETITIVE,searchpage-profile.cfm_842.html
Drew University/College of Liberal Arts,Madison,NJ,07940,VERY COMPETITIVE,searchpage-profile.cfm_844.html
Fairleigh Dickinson University/College at Florham,Madison,NJ,07940,COMPETITIVE,searchpage-profile.cfm_846.html
Fairleigh Dickinson University/Metropolitan Campus,Teaneck,NJ,07666,COMPETITIVE,searchpage-profile.cfm_847.html
Felician University,Lodi,NJ,07644,LESS COMPETITIVE,searchpage-profile.cfm_848.html
Georgian Court University,Lakewood,NJ,08701,LESS COMPETITIVE,searchpage-profile.cfm_849.html
Kean University,Union,NJ,07083,COMPETITIVE,searchpage-profile.cfm_850.html
Monmouth University,West Long Branch,NJ,07764,COMPETITIVE,searchpage-profile.cfm_851.html
Montclair State University,Montclair,NJ,07042,LESS COMPETITIVE,searchpage-profile.cfm_852.html
New Jersey City University,Jersey City,NJ,07305,LESS COMPETITIVE,searchpage-profile.cfm_853.html
New Jersey Institute of Technology,Newark,NJ,07102,VERY COMPETITIVE,searchpage-profile.cfm_854.html
Princeton University,Princeton,NJ,08544,MOST COMPETITIVE,searchpage-profile.cfm_855.html
Ramapo College of New Jersey,Mahwah,NJ,07430,COMPETITIVE,searchpage-profile.cfm_856.html
Stockton University,Galloway,NJ,08205,Not Available,searchpage-profile.cfm_857.html
Rider University,Lawrenceville,NJ,08648,COMPETITIVE,searchpage-profile.cfm_858.html
Rowan University,Glassboro,NJ,08028,VERY COMPETITIVE+,searchpage-profile.cfm_859.html
Rutgers University - Camden,Camden,NJ,08102,COMPETITIVE,searchpage-profile.cfm_870.html
Rutgers University - New Brunswick,Piscataway,NJ,08854,HIGHLY COMPETITIVE,searchpage-profile.cfm_871.html
Rutgers University - Newark,Newark,NJ,07102,COMPETITIVE,searchpage-profile.cfm_872.html
Saint Peter's University,Jersey City,NJ,07306,COMPETITIVE,searchpage-profile.cfm_873.html
Seton Hall University,South Orange,NJ,07079,COMPETITIVE,searchpage-profile.cfm_874.html
Stevens Institute of Technology,Hoboken,NJ,07030,MOST COMPETITIVE,searchpage-profile.cfm_875.html
Thomas Edison State University,Trenton,NJ,08608,NONCOMPETITIVE,searchpage-profile.cfm_876.html
Westminster Choir College,Princeton,NJ,08540,SPECIAL,searchpage-profile.cfm_877.html
William Paterson University of New Jersey,Wayne,NJ,07470,COMPETITIVE,searchpage-profile.cfm_878.html
Santa Fe University of Art and Design,Santa Fe,NM,87505,SPECIAL,searchpage-profile.cfm_879.html
University of the Southwest,Hobbs,NM,88240,COMPETITIVE,searchpage-profile.cfm_880.html
Eastern New Mexico University,Portales,NM,88130,COMPETITIVE,searchpage-profile.cfm_881.html
New Mexico Highlands University,Las Vegas,NM,87701,NONCOMPETITIVE,searchpage-profile.cfm_882.html
New Mexico Institute of Mining and Technology,Socorro,NM,87801,HIGHLY COMPETITIVE,searchpage-profile.cfm_883.html
New Mexico State University,Las Cruces,NM,88003,COMPETITIVE,searchpage-profile.cfm_884.html
"St. John's College, Santa Fe",Santa Fe,NM,87505,HIGHLY COMPETITIVE+,searchpage-profile.cfm_885.html
University of New Mexico,Albuquerque,NM,87131,COMPETITIVE,searchpage-profile.cfm_886.html
Western New Mexico University,Silver City,NM,88061,LESS COMPETITIVE,searchpage-profile.cfm_887.html
Adelphi University,Garden City,NY,11530,COMPETITIVE,searchpage-profile.cfm_888.html
Albany College of Pharmacy and Health Sciences,Albany,NY,12208,SPECIAL,searchpage-profile.cfm_889.html
Albert A. List College of Jewish Studies,New York,NY,10027,COMPETITIVE,searchpage-profile.cfm_890.html
Alfred University,Alfred,NY,14802,COMPETITIVE+,searchpage-profile.cfm_891.html
Metropolitan College of New York,New York,NY,10006,VERY COMPETITIVE,searchpage-profile.cfm_892.html
Bard College,Annandale-on-Hudson,NY,12504,HIGHLY COMPETITIVE,searchpage-profile.cfm_893.html
Barnard College/Columbia University,New York,NY,10027,MOST COMPETITIVE,searchpage-profile.cfm_894.html
Berkeley College/White Plains Campus,White Plains,NY,10601,LESS COMPETITIVE,searchpage-profile.cfm_895.html
Berkeley College/New York City Campus,New York,NY,10017,LESS COMPETITIVE,searchpage-profile.cfm_896.html
Boricua College,New York,NY,10032,COMPETITIVE,searchpage-profile.cfm_897.html
Canisius College,Buffalo,NY,14208,COMPETITIVE,searchpage-profile.cfm_898.html
Cazenovia College,Cazenovia,NY,13035,COMPETITIVE,searchpage-profile.cfm_899.html
City University of New York/Baruch College,New York,NY,10010,HIGHLY COMPETITIVE,searchpage-profile.cfm_901.html
City University of New York/Brooklyn College,Brooklyn,NY,11210,COMPETITIVE+,searchpage-profile.cfm_902.html
City University of New York/City College,New York,NY,10031,VERY COMPETITIVE,searchpage-profile.cfm_903.html
College of Staten Island CUNY,Staten Island,NY,10314,NONCOMPETITIVE,searchpage-profile.cfm_904.html
City University of New York/Lehman College,Bronx,NY,10468,LESS COMPETITIVE,searchpage-profile.cfm_905.html
City University of New York/Hunter College,New York,NY,10065,VERY COMPETITIVE,searchpage-profile.cfm_906.html
City University of New York/John Jay College of Criminal Justice,New York,NY,10019,NON COMPETITIVE,searchpage-profile.cfm_907.html
City University of New York/Meger Evers College,Brooklyn,NY,11225,NONCOMPETITIVE,searchpage-profile.cfm_908.html
City University of New York/College of Technology,Brooklyn,NY,11201,NONCOMPETITIVE,searchpage-profile.cfm_909.html
City University of New York/Queens College,Queens,NY,11367,COMPETITIVE,searchpage-profile.cfm_910.html
City University of New York/York College,Jamaica,NY,11451,LESS COMPETITIVE,searchpage-profile.cfm_911.html
Clarkson University,Potsdam,NY,13699,HIGHLY COMPETITIVE,searchpage-profile.cfm_912.html
Colgate University,Hamilton,NY,13346,MOST COMPETITIVE,searchpage-profile.cfm_913.html
Vaughn College of Aeronautics and Technology,Flushing,NY,11369,COMPETITIVE,searchpage-profile.cfm_914.html
College of Mount Saint Vincent,Riverdale,NY,10471,COMPETITIVE,searchpage-profile.cfm_915.html
The College of New Rochelle,New Rochelle,NY,10805,VERY COMPETITIVE,searchpage-profile.cfm_916.html
The College of Saint Rose,Albany,NY,12203,COMPETITIVE,searchpage-profile.cfm_918.html
Columbia University/City of New York,New York,NY,10027,MOST COMPETITIVE,searchpage-profile.cfm_920.html
Columbia University/ School of General Studies,New York,NY,10027,MOST COMPETITIVE,searchpage-profile.cfm_922.html
Concordia College - New York,Bronxville,NY,10708,LESS COMPETITIVE,searchpage-profile.cfm_923.html
Cooper Union for the Advancement of Science and Art,New York,NY,10003,MOST COMPETITIVE,searchpage-profile.cfm_924.html
Cornell University,Ithaca,NY,14850,MOST COMPETITIVE,searchpage-profile.cfm_925.html
Daemen College,Amherst,NY,14226,COMPETITIVE,searchpage-profile.cfm_926.html
Dominican College,Orangeburg,NY,10962,LESS COMPETITIVE,searchpage-profile.cfm_928.html
D'Youville College,Buffalo,NY,14201,COMPETITIVE,searchpage-profile.cfm_930.html
Eastman School of Music/University of Rochester,Rochester,NY,14604,SPECIAL,searchpage-profile.cfm_931.html
Elmira College,Elmira,NY,14901,COMPETITIVE,searchpage-profile.cfm_932.html
Eugene Lang College of Liberal Arts,New York,NY,10011,COMPETITIVE,searchpage-profile.cfm_933.html
Fashion Institute of Technology/State University of New York,New York,NY,10001,SPECIAL,searchpage-profile.cfm_934.html
Five Towns College,Dix Hills,NY,11746,COMPETITIVE,searchpage-profile.cfm_935.html
Fordham University,Bronx,NY,10458,MOST COMPETITIVE,searchpage-profile.cfm_937.html
Hamilton College,Clinton,NY,13323,MOST COMPETITIVE,searchpage-profile.cfm_939.html
Hartwick College,Oneonta,NY,13820,COMPETITIVE,searchpage-profile.cfm_940.html
Hilbert College,Hamburg,NY,14075,COMPETITIVE,searchpage-profile.cfm_941.html
Hobart and William Smith Colleges,Geneva,NY,14456,HIGHLY COMPETITIVE,searchpage-profile.cfm_942.html
Hofstra University,Hempstead,NY,11549,COMPETITIVE+,searchpage-profile.cfm_943.html
Houghton College,Houghton,NY,14744,COMPETITIVE,searchpage-profile.cfm_944.html
Iona College,New Rochelle,NY,10801,COMPETITIVE,searchpage-profile.cfm_945.html
Ithaca College,Ithaca,NY,14850,VERY COMPETITIVE,searchpage-profile.cfm_946.html
The Juilliard School,New York,NY,10023,SPECIAL,searchpage-profile.cfm_947.html
Keuka College,Keuka Park,NY,14478,COMPETITIVE,searchpage-profile.cfm_948.html
LIM College,New York,NY,10022,LESS COMPETITIVE,searchpage-profile.cfm_949.html
Le Moyne College,Syracuse,NY,13214,COMPETITIVE,searchpage-profile.cfm_950.html
LIU Brooklyn,Brooklyn,NY,11201,COMPETITIVE,searchpage-profile.cfm_952.html
LIU Post,Brookville,NY,11548,COMPETITIVE,searchpage-profile.cfm_953.html
Manhattan College,Riverdale,NY,10471,COMPETITIVE+,searchpage-profile.cfm_955.html
Manhattan School of Music,New York,NY,10027,SPECIAL,searchpage-profile.cfm_956.html
Manhattanville College,Purchase,NY,10577,COMPETITIVE+,searchpage-profile.cfm_957.html
Mannes School of Music,New York,NY,10011,SPECIAL,searchpage-profile.cfm_958.html
Marist College,Poughkeepsie,NY,12601,VERY COMPETITIVE,searchpage-profile.cfm_959.html
Marymount Manhattan College,New York,NY,10021,VERY COMPETITIVE,searchpage-profile.cfm_961.html
Medaille College,Buffalo,NY,14214,COMPETITIVE,searchpage-profile.cfm_962.html
Mercy College,Dobbs Ferry,NY,10522,COMPETITIVE,searchpage-profile.cfm_963.html
Molloy College,Rockville Centre,NY,11570,COMPETITIVE,searchpage-profile.cfm_964.html
Monroe College,Bronx,NY,10468,COMPETITIVE,searchpage-profile.cfm_965.html
Mount Saint Mary College,Newburgh,NY,12550,COMPETITIVE,searchpage-profile.cfm_966.html
Nazareth College,Rochester,NY,14618,COMPETITIVE,searchpage-profile.cfm_967.html
New York Institute of Technology,Old Westbury,NY,11568,COMPETITIVE,searchpage-profile.cfm_968.html
New York University,New York,NY,10011,MOST COMPETITIVE,searchpage-profile.cfm_969.html
Niagara University,Niagara University,NY,14109,COMPETITIVE,searchpage-profile.cfm_970.html
Nyack College,Nyack,NY,10960,NONCOMPETITIVE,searchpage-profile.cfm_971.html
Pace University,New York,NY,10038,COMPETITIVE,searchpage-profile.cfm_972.html
Parsons The New School for Design,New York,NY,10011,SPECIAL,searchpage-profile.cfm_973.html
Pratt Institute,Brooklyn,NY,11205,VERY COMPETITIVE,searchpage-profile.cfm_976.html
Excelsior College,Albany,NY,12203,SPECIAL,searchpage-profile.cfm_977.html
Rensselaer Polytechnic Institute,Troy,NY,12180,MOST COMPETITIVE,searchpage-profile.cfm_978.html
Roberts Wesleyan College,Rochester,NY,14624,COMPETITIVE,searchpage-profile.cfm_979.html
Rochester Institute of Technology,Rochester,NY,14623,HIGHLY COMPETITIVE,searchpage-profile.cfm_980.html
Russell Sage College,Troy,NY,12180,COMPETITIVE,searchpage-profile.cfm_981.html
St. Bonaventure University,St. Bonaventure,NY,14778,COMPETITIVE,searchpage-profile.cfm_982.html
St. Francis College,Brooklyn,NY,11201,LESS COMPETITIVE,searchpage-profile.cfm_983.html
St. John Fisher College,Rochester,NY,14618,COMPETITIVE,searchpage-profile.cfm_984.html
St. John's University,Queens,NY,11439,COMPETITIVE,searchpage-profile.cfm_985.html
"St. Joseph's College,  New York/Brooklyn Campus",Brooklyn,NY,11205,LESS COMPETITIVE,searchpage-profile.cfm_986.html
St. Lawrence University,Canton,NY,13617,VERY COMPETITIVE,searchpage-profile.cfm_987.html
St. Thomas Aquinas College,Sparkill,NY,10976,COMPETITIVE,searchpage-profile.cfm_988.html
Sarah Lawrence College,Bronxville,NY,10708,HIGHLY COMPETITIVE,searchpage-profile.cfm_989.html
School of Visual Arts,New York,NY,10010,SPECIAL,searchpage-profile.cfm_990.html
Siena College,Loudonville,NY,12211,COMPETITIVE+,searchpage-profile.cfm_991.html
Skidmore College,Saratoga Springs,NY,12866,HIGHLY COMPETITIVE,searchpage-profile.cfm_992.html
State University of New York SUNY Albany,Albany,NY,12222,COMPETITIVE,searchpage-profile.cfm_994.html
State University of New York at Binghamton,Binghamton,NY,13902,MOST COMPETITIVE,searchpage-profile.cfm_995.html
State University of New York/University at Buffalo,Buffalo,NY,14214,COMPETITIVE+,searchpage-profile.cfm_996.html
Stony Brook University/The State University of New York,Stony Brook,NY,11794,MOST COMPETITIVE,searchpage-profile.cfm_997.html
The College at Brockport - State University of New York,Brockport,NY,14420,COMPETITIVE,searchpage-profile.cfm_998.html
State University of New York/Buffalo State College,Buffalo,NY,14222,COMPETITIVE,searchpage-profile.cfm_999.html
